latitude,longitude,type,info,category,female,male,wheelchair,operator,baby_facil,address,name,geometry,location_id
-37.82210994675337,144.93666205920204,Stainless Steel Drinking Fountain / Leaf Type,Wharfs Landing Park,drinking_fountains,,,,,,,,POINT (144.93666205920204 -37.82210994675337),91
-37.81043106640399,144.95558395492208,Leaf Type / With Bottle Refill Tap,Flagstaff Gardens,drinking_fountains,,,,,,,,POINT (144.95558395492208 -37.81043106640399),109
-37.80089398503696,144.96074870882546,Leaf Type / Dog Bowl ,University Square,drinking_fountains,,,,,,,,POINT (144.96074870882546 -37.80089398503696),46
-37.79841970759794,144.92421993826414,Leaf Type / Dog Bowl ,JJ Holland Park,drinking_fountains,,,,,,,,POINT (144.92421993826414 -37.79841970759794),85
-37.7914165845557,144.96125460876374,Leaf Type / Dog Bowl ,Princes Park,drinking_fountains,,,,,,,,POINT (144.96125460876374 -37.7914165845557),44
-37.79028778877907,144.94509842701018,Leaf Type / Dog Bowl ,Royal Park,drinking_fountains,,,,,,,,POINT (144.94509842701018 -37.79028778877907),121
-37.821103585220605,144.97249534473832,Leaf Type / Dog Bowl ,Alexandra Gardens,drinking_fountains,,,,,,,,POINT (144.97249534473832 -37.821103585220605),7
-37.82435043745128,144.9771113193355,Stainless Steel Drinking Fountain / Leaf Type,Bottle Refill Tap,drinking_fountains,,,,,,,,POINT (144.9771113193355 -37.82435043745128),110
-37.78462350014393,144.96015661193692,Stainless Steel Drinking Fountain / Leaf Type,Princes Park,drinking_fountains,,,,,,,,POINT (144.96015661193692 -37.78462350014393),44
-37.796396827991096,144.97292609129818,Leaf Type / Dog Bowl ,Canning & Palmerston St Reserve,drinking_fountains,,,,,,,,POINT (144.97292609129818 -37.796396827991096),50
-37.82055140792857,144.9731742469266,Leaf Type / With Bottle Refill Tap,Alexandra Gardens,drinking_fountains,,,,,,,,POINT (144.9731742469266 -37.82055140792857),127
-37.796300658626926,144.94502857293458,Leaf Type / Dog Bowl ,Pleasance Gardens,drinking_fountains,,,,,,,,POINT (144.94502857293458 -37.796300658626926),121
-37.80037327256486,144.97278944216202,Leaf Type / With Bottle Refill Tap,Murchison Square,drinking_fountains,,,,,,,,POINT (144.97278944216202 -37.80037327256486),50
-37.82089072956917,144.94692985249003,Stainless Steel Drinking Fountain / Leaf Type,Docklands Park,drinking_fountains,,,,,,,,POINT (144.94692985249003 -37.82089072956917),8
-37.80211398428,144.97283100368065,Leaf Type / With Bottle Refill Tap,Carlton Gardens North,drinking_fountains,,,,,,,,POINT (144.97283100368065 -37.80211398428),37
-37.81536210793982,144.97970486535712,Stainless Steel Drinking Fountain / Leaf Type,,drinking_fountains,,,,,,,,POINT (144.97970486535712 -37.81536210793982),116
-37.79431438564634,144.9302959180467,Stainless Steel Drinking Fountain / Leaf Type,,drinking_fountains,,,,,,,,POINT (144.9302959180467 -37.79431438564634),76
-37.828673986591355,144.9672264971803,Treated Timber Drinking Fountain / Miles & Dodds Street Reserve,,drinking_fountains,,,,,,,,POINT (144.9672264971803 -37.828673986591355),114
-37.79337819173264,144.94004830856508,Urban design stainless steel,,drinking_fountains,,,,,,,,POINT (144.94004830856508 -37.79337819173264),76
-37.799615873678334,144.96425054146184,Stainless Steel Drinking Fountain / Leaf Type,Bottle Refill Tap,drinking_fountains,,,,,,,,POINT (144.96425054146184 -37.799615873678334),42
-37.814969228345504,144.96035042039261,Stainless Steel Drinking Fountain / Leaf Type,,drinking_fountains,,,,,,,,POINT (144.96035042039261 -37.814969228345504),36
-37.81932147571993,144.94249797871333,Stainless Steel Drinking Fountain / Leaf Type,,drinking_fountains,,,,,,,,POINT (144.94249797871333 -37.81932147571993),130
-37.80750643106099,144.9685049927858,Stainless Steel Drinking Fountain / Leaf Type,,drinking_fountains,,,,,,,,POINT (144.9685049927858 -37.80750643106099),30
-37.780205363639304,144.95293574839906,Stainless Steel Drinking Fountain / Leaf Type,Royal Park,drinking_fountains,,,,,,,,POINT (144.95293574839906 -37.780205363639304),121
-37.814695182979264,144.93847737611912,Stainless Steel Drinking Fountain / Leaf Type,,drinking_fountains,,,,,,,,POINT (144.93847737611912 -37.814695182979264),11
-37.82337609495653,144.9798517032086,Stainless Steel Drinking Fountain / Leaf Type,Bottle Refill Tap,drinking_fountains,,,,,,,,POINT (144.9798517032086 -37.82337609495653),110
-37.818939263478214,144.94348692912953,Stainless Steel Drinking Fountain / Leaf Type,,drinking_fountains,,,,,,,,POINT (144.94348692912953 -37.818939263478214),130
-37.77845421707277,144.95603509792244,Concrete Drinking Fountain,,drinking_fountains,,,,,,,,POINT (144.95603509792244 -37.77845421707277),121
-37.81386555249958,144.96475087670643,Stainless Steel Drinking Fountain / Leaf Type,,drinking_fountains,,,,,,,,POINT (144.96475087670643 -37.81386555249958),2
-37.78297956185507,144.9418702885437,Stainless Steel Drinking Fountain / Leaf Type,Bottle Refill Tap,drinking_fountains,,,,,,,,POINT (144.9418702885437 -37.78297956185507),103
-37.79542994425931,144.95202812794676,Leaf Type / With Bottle Refill Tap,Royal Park,drinking_fountains,,,,,,,,POINT (144.95202812794676 -37.79542994425931),121
-37.79275280598382,144.96844335889637,Stainless Steel Drinking Fountain / Leaf Type,,drinking_fountains,,,,,,,,POINT (144.96844335889637 -37.79275280598382),50
-37.811050947085775,144.96714245008525,Stainless Steel Drinking Fountain / Leaf Type,Bottle Refill Tap,drinking_fountains,,,,,,,,POINT (144.96714245008525 -37.811050947085775),30
-37.83081555124981,144.97427512305256,Leaf Type / With Bottle Refill Tap,Shrine of Remembrance Reserve,drinking_fountains,,,,,,,,POINT (144.97427512305256 -37.83081555124981),129
-37.82051269611414,144.94396083541395,Stainless Steel Drinking Fountain / Leaf Type,,drinking_fountains,,,,,,,,POINT (144.94396083541395 -37.82051269611414),130
-37.819668916851825,144.9417577515994,Stainless Steel Drinking Fountain / Old Docklands Type,,drinking_fountains,,,,,,,,POINT (144.9417577515994 -37.819668916851825),130
-37.81515985140142,144.93712549711364,Stainless Steel Drinking Fountain / Leaf Type,,drinking_fountains,,,,,,,,POINT (144.93712549711364 -37.81515985140142),11
-37.82114510296565,144.94298366417019,Stainless Steel Drinking Fountain / Old Docklands Type,,drinking_fountains,,,,,,,,POINT (144.94298366417019 -37.82114510296565),130
-37.8175239427856,144.96013037555608,Stainless Steel Drinking Fountain / Leaf Type,,drinking_fountains,,,,,,,,POINT (144.96013037555608 -37.8175239427856),36
-37.80225790808832,144.96613628041044,Stainless Steel Drinking Fountain / Leaf Type,Argyle Square,drinking_fountains,,,,,,,,POINT (144.96613628041044 -37.80225790808832),112
-37.81600551227767,144.9651330881475,Stainless Steel Drinking Fountain / Leaf Type,Bottle Refill Tap,drinking_fountains,,,,,,,,POINT (144.9651330881475 -37.81600551227767),53
-37.79924850919621,144.9504177251165,Leaf Type / Dog Bowl ,Errol Street Reserve,drinking_fountains,,,,,,,,POINT (144.9504177251165 -37.79924850919621),86
-37.82123671455052,144.97077057669242,Historic or Heritage Drinking Fountains / Queen Victoria Gardens,,drinking_fountains,,,,,,,,POINT (144.97077057669242 -37.82123671455052),28
-37.79922710932603,144.94028139112405,Stainless Steel Drinking Fountain / Leaf Type,North Melbourne Recreation Reserve,drinking_fountains,,,,,,,,POINT (144.94028139112405 -37.79922710932603),86
-37.80056485451508,144.9668454274885,Stainless Steel Drinking Fountain / Leaf Type,Bottle Refill Tap,drinking_fountains,,,,,,,,POINT (144.9668454274885 -37.80056485451508),31
-37.81033905955521,144.9724239787079,Stainless Steel Drinking Fountain / Leaf Type,,drinking_fountains,,,,,,,,POINT (144.9724239787079 -37.81033905955521),40
-37.805018324001324,144.94911036775298,Stainless Steel Drinking Fountain / Leaf Type,Bottle Refill Tap,drinking_fountains,,,,,,,,POINT (144.94911036775298 -37.805018324001324),87
-37.79009686226306,144.9257559567742,Historic or Heritage Drinking Fountains / Liddy Street Reserve (KENSINGTON),,drinking_fountains,,,,,,,,POINT (144.9257559567742 -37.79009686226306),103
-37.7981300933256,144.9217175971122,Treated Timber Drinking Fountain / JJ Holland Park,,drinking_fountains,,,,,,,,POINT (144.9217175971122 -37.7981300933256),85
-37.81261776692698,144.9683505786709,Stainless Steel Drinking Fountain / Leaf Type,Bottle Refill Tap,drinking_fountains,,,,,,,,POINT (144.9683505786709 -37.81261776692698),21
-37.80626983275522,144.95806339729006,Stainless Steel Drinking Fountain / Leaf Type,,drinking_fountains,,,,,,,,POINT (144.95806339729006 -37.80626983275522),48
-37.81812625933699,144.9458429589375,Stainless Steel Drinking Fountain / Leaf Type,,drinking_fountains,,,,,,,,POINT (144.9458429589375 -37.81812625933699),10
-37.81243580767888,144.97368439844223,Stainless Steel Drinking Fountain / Leaf Type,Bottle Refill Tap,drinking_fountains,,,,,,,,POINT (144.97368439844223 -37.81243580767888),18
-37.816927072109706,144.9837045105586,Old Style Steel Drinking Fountain,,drinking_fountains,,,,,,,,POINT (144.9837045105586 -37.816927072109706),93
-37.80725891583743,144.94696422855037,Stainless Steel Drinking Fountain / Leaf Type,Bottle Refill Tap,drinking_fountains,,,,,,,,POINT (144.94696422855037 -37.80725891583743),87
-37.79735380762625,144.95284368062156,Drinking Fountain / Type 1,,drinking_fountains,,,,,,,,POINT (144.95284368062156 -37.79735380762625),121
-37.79583501177402,144.96807205336754,Leaf Type / Dog Bowl ,Neill Street Reserve,drinking_fountains,,,,,,,,POINT (144.96807205336754 -37.79583501177402),50
-37.813703464993914,144.96524821218875,Drinking Fountain / Type 1,,drinking_fountains,,,,,,,,POINT (144.96524821218875 -37.813703464993914),2
-37.816008130348806,144.94552203541383,Stainless Steel Drinking Fountain / Leaf Type,,drinking_fountains,,,,,,,,POINT (144.94552203541383 -37.816008130348806),78
-37.811115148970096,144.96662794395766,Stainless Steel Drinking Fountain / Leaf Type,,drinking_fountains,,,,,,,,POINT (144.96662794395766 -37.811115148970096),30
-37.806116903955164,144.9571333967204,Drinking Fountain / Type 1,,drinking_fountains,,,,,,,,POINT (144.9571333967204 -37.806116903955164),27
-37.8452141594852,144.98256140204748,Leaf Type / Dog Bowl ,Fawkner Park,drinking_fountains,,,,,,,,POINT (144.98256140204748 -37.8452141594852),129
-37.81047950700537,144.96434622822136,Stainless Steel Drinking Fountain / Leaf Type,Bottle Refill Tap,drinking_fountains,,,,,,,,POINT (144.96434622822136 -37.81047950700537),66
-37.795526766864704,144.93075415955866,Stainless Steel Drinking Fountain / Leaf Type,Bellair Street Reserve,drinking_fountains,,,,,,,,POINT (144.93075415955866 -37.795526766864704),76
-37.800491981075275,144.96374391208968,Stainless Steel Drinking Fountain / Leaf Type,Bottle Refill Tap,drinking_fountains,,,,,,,,POINT (144.96374391208968 -37.800491981075275),42
-37.82024273028081,144.95962780503942,Stainless Steel Drinking Fountain / Leaf Type,Bottle Refill Tap,drinking_fountains,,,,,,,,POINT (144.95962780503942 -37.82024273028081),131
-37.82022017744959,144.94480746086566,Stainless Steel Drinking Fountain / Northbank Type,,drinking_fountains,,,,,,,,POINT (144.94480746086566 -37.82022017744959),10
-37.81232314728076,144.98893301349375,Stainless Steel Drinking Fountain / Leaf Type,Bottle Refill Tap,drinking_fountains,,,,,,,,POINT (144.98893301349375 -37.81232314728076),93
-37.795594738274296,144.9691367333386,Stainless Steel Drinking Fountain / Leaf Type,Neill Street Reserve,drinking_fountains,,,,,,,,POINT (144.9691367333386 -37.795594738274296),50
-37.79622591094481,144.92675323715673,Historic or Heritage Drinking Fountains / Warun Biik Park,,drinking_fountains,,,,,,,,POINT (144.92675323715673 -37.79622591094481),85
-37.79125129687361,144.93147576642454,Drinking Fountain / Type 1,,drinking_fountains,,,,,,,,POINT (144.93147576642454 -37.79125129687361),103
-37.79166434549512,144.95175691050537,Leaf Type / Dog Bowl ,Royal Park,drinking_fountains,,,,,,,,POINT (144.95175691050537 -37.79166434549512),121
-37.828809493040296,144.97413127261856,Stainless Steel Drinking Fountain / Leaf Type,Kings Domain South,drinking_fountains,,,,,,,,POINT (144.97413127261856 -37.828809493040296),115
-37.82099191418598,144.9617423793966,Stainless Steel Drinking Fountain / Leaf Type,Bottle Refill Tap,drinking_fountains,,,,,,,,POINT (144.9617423793966 -37.82099191418598),14
-37.813705889407565,144.9749027278744,Stainless Steel Drinking Fountain / Leaf Type,Bottle Refill Tap,drinking_fountains,,,,,,,,POINT (144.9749027278744 -37.813705889407565),75
-37.83249800027375,144.97285892460977,Historic or Heritage Drinking Fountains / Shrine Gardens,,drinking_fountains,,,,,,,,POINT (144.97285892460977 -37.83249800027375),128
-37.80633683559588,144.9590744803669,Stainless Steel Drinking Fountain / Leaf Type,,drinking_fountains,,,,,,,,POINT (144.9590744803669 -37.80633683559588),48
-37.786067144628724,144.96306993513306,Stainless Steel Drinking Fountain / Leaf Type,Bottle Refill Tap,drinking_fountains,,,,,,,,POINT (144.96306993513306 -37.786067144628724),44
-37.81437201868546,144.96613327636365,Stainless Steel Drinking Fountain / Leaf Type,Bottle Refill Tap,drinking_fountains,,,,,,,,POINT (144.96613327636365 -37.81437201868546),45
-37.81840304050843,144.97885934809221,Drinking Fountain / Monument Style Type 3,,drinking_fountains,,,,,,,,POINT (144.97885934809221 -37.81840304050843),96
-37.81649090115357,144.98515748991457,Stainless Steel Drinking Fountain / Leaf Type,Bottle Refill Tap,drinking_fountains,,,,,,,,POINT (144.98515748991457 -37.81649090115357),93
-37.79407412774661,144.93082898880024,Stainless Steel Drinking Fountain / Leaf Type,Eastwood and Rankins Park,drinking_fountains,,,,,,,,POINT (144.93082898880024 -37.79407412774661),76
-37.807863918393416,144.96107434937468,Stainless Steel Drinking Fountain / Leaf Type,,drinking_fountains,,,,,,,,POINT (144.96107434937468 -37.807863918393416),26
-37.81607983975034,144.93862697161046,Stainless Steel Drinking Fountain / Leaf Type,,drinking_fountains,,,,,,,,POINT (144.93862697161046 -37.81607983975034),11
-37.81328717472797,144.9892411598799,Stainless Steel Drinking Fountain / Leaf Type,,drinking_fountains,,,,,,,,POINT (144.9892411598799 -37.81328717472797),93
-37.80530265416531,144.96955831322754,Stainless Steel Drinking Fountain / Leaf Type,Bottle Refill Tap,drinking_fountains,,,,,,,,POINT (144.96955831322754 -37.80530265416531),37
-37.815447719564624,144.96705501075527,Stainless Steel Drinking Fountain / Leaf Type,,drinking_fountains,,,,,,,,POINT (144.96705501075527 -37.815447719564624),65
-37.839918521598555,144.9812959600913,Leaf Type / Dog Bowl,Fawkner Park,drinking_fountains,,,,,,,,POINT (144.9812959600913 -37.839918521598555),129
-37.81367564418339,144.98268520584864,Leaf Type / With Bottle Refill Tap,Fitzroy Gardens,drinking_fountains,,,,,,,,POINT (144.98268520584864 -37.81367564418339),94
-37.82087279535316,144.94185586107258,Stainless Steel Drinking Fountain / Old Docklands Type,,drinking_fountains,,,,,,,,POINT (144.94185586107258 -37.82087279535316),130
-37.815558943545426,144.93989772357784,Stainless Steel Drinking Fountain / Leaf Type,,drinking_fountains,,,,,,,,POINT (144.93989772357784 -37.815558943545426),11
-37.78144167402145,144.95595472988092,Stainless Steel Drinking Fountain / Leaf Type,Royal Park,drinking_fountains,,,,,,,,POINT (144.95595472988092 -37.78144167402145),121
-37.78559620252012,144.96932282550418,Drinking Fountain / Monument Style Type 2,Hardy Reserve,drinking_fountains,,,,,,,,POINT (144.96932282550418 -37.78559620252012),44
-37.82424533734149,144.97698410547824,Leaf Type / Dog Bowl ,Kings Domain,drinking_fountains,,,,,,,,POINT (144.97698410547824 -37.82424533734149),110
-37.81010993947886,144.95363625566395,Leaf Type / Dog Bowl ,Flagstaff Gardens,drinking_fountains,,,,,,,,POINT (144.95363625566395 -37.81010993947886),132
-37.8020146095429,144.9605723948678,Historic or Heritage fountains / University Square,,drinking_fountains,,,,,,,,POINT (144.9605723948678 -37.8020146095429),46
-37.7881098191695,144.95949172029708,Leaf Type / With Bottle Refill Tap,Princes Park,drinking_fountains,,,,,,,,POINT (144.95949172029708 -37.7881098191695),44
-37.77732383776788,144.9531895231545,Stainless Steel Drinking Fountain / Leaf Type,Royal Park,drinking_fountains,,,,,,,,POINT (144.9531895231545 -37.77732383776788),121
-37.82168006484173,144.9700370336942,Leaf Type / With Bottle Refill Tap,Queen Victoria Gardens,drinking_fountains,,,,,,,,POINT (144.9700370336942 -37.82168006484173),28
-37.82605853691661,144.9615312833258,Stainless Steel Drinking Fountain / Leaf Type,Boyd Community Hub,drinking_fountains,,,,,,,,POINT (144.9615312833258 -37.82605853691661),90
-37.827087271632976,144.98504460154422,Historic or Heritage Drinking Fountains / Alexandra Park,,drinking_fountains,,,,,,,,POINT (144.98504460154422 -37.827087271632976),110
-37.819734518071364,144.9475652363716,Stainless Steel Drinking Fountain / Leaf Type,Hub@Docklands,drinking_fountains,,,,,,,,POINT (144.9475652363716 -37.819734518071364),10
-37.82017775836843,144.9480020326732,Leaf Type / With Bottle Refill Tap,Hub@Docklands,drinking_fountains,,,,,,,,POINT (144.9480020326732 -37.82017775836843),10
-37.78413055442304,144.9561695135437,Leaf Type / Dog Bowl ,Royal Park,drinking_fountains,,,,,,,,POINT (144.9561695135437 -37.78413055442304),121
-37.78866797179563,144.96246173875772,Leaf Type / With Bottle Refill Tap,Princes Park,drinking_fountains,,,,,,,,POINT (144.96246173875772 -37.78866797179563),44
-37.79256416270773,144.922630804458,Leaf Type / With Bottle Refill Tap,Peppercorn Park,drinking_fountains,,,,,,,,POINT (144.922630804458 -37.79256416270773),103
-37.79148137934659,144.95640337310826,Leaf Type / With Bottle Refill Tap,Royal Park,drinking_fountains,,,,,,,,POINT (144.95640337310826 -37.79148137934659),121
-37.781971287851476,144.95606844481355,Leaf Type / With Bottle Refill Tap,Royal Park,drinking_fountains,,,,,,,,POINT (144.95606844481355 -37.781971287851476),121
-37.79451455017051,144.9159122539464,Leaf Type / Dog Bowl ,Riverside Park,drinking_fountains,,,,,,,,POINT (144.9159122539464 -37.79451455017051),103
-37.819376190936254,144.96425791163875,Stainless Steel Drinking Fountain / Northbank Type,,drinking_fountains,,,,,,,,POINT (144.96425791163875 -37.819376190936254),35
-37.80719483579952,144.97264821832775,Treated Timber Drinking Fountain / Carlton Gardens South,,drinking_fountains,,,,,,,,POINT (144.97264821832775 -37.80719483579952),40
-37.80333644461803,144.94973046402842,Ornamental Drinking Fountain / Errol St North Melbourne,,drinking_fountains,,,,,,,,POINT (144.94973046402842 -37.80333644461803),102
-37.8200996090771,144.96520412105647,Stainless Steel Drinking Fountain / Leaf Type,Bottle Refill Tap,drinking_fountains,,,,,,,,POINT (144.96520412105647 -37.8200996090771),35
-37.81191194838843,144.97076931535327,Stainless Steel Drinking Fountain / Leaf Type,Bottle Refill Tap,drinking_fountains,,,,,,,,POINT (144.97076931535327 -37.81191194838843),71
-37.81108547106561,144.986823716213,Stainless Steel Drinking Fountain / Leaf Type,Powlett Reserve,drinking_fountains,,,,,,,,POINT (144.986823716213 -37.81108547106561),93
-37.79634473440512,144.95295625926101,Treated Timber Drinking Fountain / Ievers Reserve,,drinking_fountains,,,,,,,,POINT (144.95295625926101 -37.79634473440512),121
-37.83352412979702,144.98347223277543,Leaf Type / Dog Bowl ,Kings Domain South,drinking_fountains,,,,,,,,POINT (144.98347223277543 -37.83352412979702),129
-37.81655981940826,144.958479412123,Stainless Steel Drinking Fountain / Leaf Type,Bottle Refill Tap,drinking_fountains,,,,,,,,POINT (144.958479412123 -37.81655981940826),36
-37.81906773607154,144.95451978482612,Stainless Steel Drinking Fountain / Leaf Type,Bottle Refill Tap,drinking_fountains,,,,,,,,POINT (144.95451978482612 -37.81906773607154),23
-37.81262231879966,144.95695726799045,Stainless Steel Drinking Fountain / Leaf Type,Bottle Refill Tap,drinking_fountains,,,,,,,,POINT (144.95695726799045 -37.81262231879966),107
-37.78972452756684,144.95542692736785,Leaf Type / Dog Bowl ,Royal Park,drinking_fountains,,,,,,,,POINT (144.95542692736785 -37.78972452756684),121
-37.81949228639884,144.94459499380662,Stainless Steel Drinking Fountain / Leaf Type,,drinking_fountains,,,,,,,,POINT (144.94459499380662 -37.81949228639884),10
-37.807152962975586,144.95128617901676,Stainless Steel Drinking Fountain / Leaf Type,Bottle Refill Tap,drinking_fountains,,,,,,,,POINT (144.95128617901676 -37.807152962975586),70
-37.81013008750712,144.99100554178736,Drinking Fountain / Type 1,,drinking_fountains,,,,,,,,POINT (144.99100554178736 -37.81013008750712),93
-37.814022713257685,144.96377589639772,Stainless Steel Drinking Fountain / Leaf Type,Bottle Refill Tap,drinking_fountains,,,,,,,,POINT (144.96377589639772 -37.814022713257685),2
-37.83822661704696,144.9845757117782,Stainless Steel Drinking Fountain / Leaf Type,,drinking_fountains,,,,,,,,POINT (144.9845757117782 -37.83822661704696),129
-37.80218636204077,144.97111015985016,Stainless Steel Drinking Fountain / Leaf Type,Bottle Refill Tap,drinking_fountains,,,,,,,,POINT (144.97111015985016 -37.80218636204077),37
-37.80154324073521,144.97074694104214,Leaf Type / With Bottle Refill Tap,Carlton Gardens North,drinking_fountains,,,,,,,,POINT (144.97074694104214 -37.80154324073521),31
-37.78615201108828,144.95349293828525,Stainless Steel Drinking Fountain / Leaf Type,Royal Park,drinking_fountains,,,,,,,,POINT (144.95349293828525 -37.78615201108828),121
-37.81992693832316,144.94314585668042,Stainless Steel Drinking Fountain / Leaf Type,,drinking_fountains,,,,,,,,POINT (144.94314585668042 -37.81992693832316),130
-37.81890778973109,144.97301938244627,Historic or Heritage Drinking Fountains / Birrarung Marr,,drinking_fountains,,,,,,,,POINT (144.97301938244627 -37.81890778973109),127
-37.811441273333834,144.95511626726946,Stainless Steel Drinking Fountain / Leaf Type,Bottle Refill Tap,drinking_fountains,,,,,,,,POINT (144.95511626726946 -37.811441273333834),109
-37.82016422388396,144.9419807414183,Stainless Steel Drinking Fountain / Old Docklands Type,,drinking_fountains,,,,,,,,POINT (144.9419807414183 -37.82016422388396),130
-37.827924925554626,144.98354503295144,unspecified type / Alexandra Park,,drinking_fountains,,,,,,,,POINT (144.98354503295144 -37.827924925554626),129
-37.81472791168905,144.93868934270515,Leaf Type / Dog Bowl ,New Quay Central Park,drinking_fountains,,,,,,,,POINT (144.93868934270515 -37.81472791168905),11
-37.80831892386757,144.97445245211898,Old Style Steel Drinking Fountain,,drinking_fountains,,,,,,,,POINT (144.97445245211898 -37.80831892386757),40
-37.82340947086067,144.94065316721642,Stainless Steel Drinking Fountain / Northbank Type,,drinking_fountains,,,,,,,,POINT (144.94065316721642 -37.82340947086067),130
-37.818393312901414,144.94467796351668,Stainless Steel Drinking Fountain / Leaf Type,,drinking_fountains,,,,,,,,POINT (144.94467796351668 -37.818393312901414),10
-37.787145044550506,144.95944649397603,Stainless Steel Drinking Fountain / Leaf Type,Princes Park,drinking_fountains,,,,,,,,POINT (144.95944649397603 -37.787145044550506),44
-37.84105383065132,144.98474159117376,unspecified type / Fawkner Park,,drinking_fountains,,,,,,,,POINT (144.98474159117376 -37.84105383065132),129
-37.83912302483119,144.98029597307354,Stainless Steel Drinking Fountain / Leaf Type,Fawkner Park,drinking_fountains,,,,,,,,POINT (144.98029597307354 -37.83912302483119),129
-37.80696316737549,144.97097533310074,Treated Timber Drinking Fountain / Carlton Gardens South,,drinking_fountains,,,,,,,,POINT (144.97097533310074 -37.80696316737549),40
-37.82006369883412,144.94335006764553,Stainless Steel Drinking Fountain / Leaf Type,,drinking_fountains,,,,,,,,POINT (144.94335006764553 -37.82006369883412),130
-37.82416129460037,144.94386411864073,Stainless Steel Drinking Fountain / Leaf Type,,drinking_fountains,,,,,,,,POINT (144.94386411864073 -37.82416129460037),8
-37.81047413141583,144.98106657764444,Leaf Type / Dog Bowl ,Fitzroy Gardens,drinking_fountains,,,,,,,,POINT (144.98106657764444 -37.81047413141583),94
-37.81426414724787,144.97865144245154,Leaf Type / With Bottle Refill Tap,Fitzroy Gardens,drinking_fountains,,,,,,,,POINT (144.97865144245154 -37.81426414724787),95
-37.81877097793573,144.97408155357158,Leaf Type / With Bottle Refill Tap,Birrarung Marr,drinking_fountains,,,,,,,,POINT (144.97408155357158 -37.81877097793573),127
-37.811816918335545,144.9647358013035,Stainless Steel Drinking Fountain / Leaf Type,Bottle Refill Tap,drinking_fountains,,,,,,,,POINT (144.9647358013035 -37.811816918335545),3
-37.829394894475676,144.97402641133465,Stainless Steel Drinking Fountain / Leaf Type,Kings Domain South,drinking_fountains,,,,,,,,POINT (144.97402641133465 -37.829394894475676),115
-37.789426340332234,144.92521601291634,Drinking Fountain / Type 1,,drinking_fountains,,,,,,,,POINT (144.92521601291634 -37.789426340332234),103
-37.82093618828216,144.94302877180849,Stainless Steel Drinking Fountain / Old Docklands Type,,drinking_fountains,,,,,,,,POINT (144.94302877180849 -37.82093618828216),130
-37.807299202453336,144.9638063589646,Stainless Steel Drinking Fountain / Leaf Type,,drinking_fountains,,,,,,,,POINT (144.9638063589646 -37.807299202453336),61
-37.81775113289117,144.9668727624917,Stainless Steel Drinking Fountain / Leaf Type,Bottle Refill Tap,drinking_fountains,,,,,,,,POINT (144.9668727624917 -37.81775113289117),79
-37.78516928275589,144.9629960270774,Stainless Steel Drinking Fountain / Leaf Type,Princes Park,drinking_fountains,,,,,,,,POINT (144.9629960270774 -37.78516928275589),44
-37.808763201408944,144.9755999159518,Drinking Fountain / Monument Style Type 3,,drinking_fountains,,,,,,,,POINT (144.9755999159518 -37.808763201408944),40
-37.81370900165242,144.96521920731234,Stainless Steel Drinking Fountain / Leaf Type,,drinking_fountains,,,,,,,,POINT (144.96521920731234 -37.81370900165242),2
-37.78528312570061,144.96618877508342,Drinking Fountain / Monument Style Type 5,,drinking_fountains,,,,,,,,POINT (144.96618877508342 -37.78528312570061),44
-37.812116364293914,144.96242655579448,Stainless Steel Drinking Fountain / Leaf Type,Bottle Refill Tap,drinking_fountains,,,,,,,,POINT (144.96242655579448 -37.812116364293914),47
-37.794860401126186,144.97032531494713,Stainless Steel Drinking Fountain / Leaf Type,Neill Street Reserve,drinking_fountains,,,,,,,,POINT (144.97032531494713 -37.794860401126186),50
-37.81933413777128,144.96443696866604,Stainless Steel Drinking Fountain / Northbank Type,,drinking_fountains,,,,,,,,POINT (144.96443696866604 -37.81933413777128),35
-37.797011044237784,144.96719442537855,Stainless Steel Drinking Fountain / Leaf Type,,drinking_fountains,,,,,,,,POINT (144.96719442537855 -37.797011044237784),50
-37.817347815583766,144.9877967436974,Stainless Steel Drinking Fountain / Leaf Type,Bottle Refill Tap,drinking_fountains,,,,,,,,POINT (144.9877967436974 -37.817347815583766),93
-37.80873006707316,144.945010465895,Stainless Steel Drinking Fountain / Leaf Type,Hawke and Adderley Street Park,drinking_fountains,,,,,,,,POINT (144.945010465895 -37.80873006707316),77
-37.81522141134258,144.96172628554172,Drinking Fountain / Type 1,,drinking_fountains,,,,,,,,POINT (144.96172628554172 -37.81522141134258),36
-37.82050899334054,144.94485852337164,Stainless Steel Drinking Fountain / Northbank Type,,drinking_fountains,,,,,,,,POINT (144.94485852337164 -37.82050899334054),10
-37.79332999851195,144.97374160438724,Treated Timber Drinking Fountain / Neill & Canning Street Reserve (CARLTON),,drinking_fountains,,,,,,,,POINT (144.97374160438724 -37.79332999851195),50
-37.82553356070186,144.96099800648864,Historic or Heritage Drinking Fountains / Boyd Community Hub (SOUTHBANK),,drinking_fountains,,,,,,,,POINT (144.96099800648864 -37.82553356070186),90
-37.82220232720067,144.956603131736,Treated Timber Drinking Fountain / Batman Park,,drinking_fountains,,,,,,,,POINT (144.956603131736 -37.82220232720067),25
-37.793822787803755,144.958038101861,Stainless Steel Drinking Fountain / Leaf Type,Bottle Refill Tap,drinking_fountains,,,,,,,,POINT (144.958038101861 -37.793822787803755),64
-37.78533232662653,144.9534737646951,Stainless Steel Drinking Fountain / Leaf Type,Bottle Refill Tap,drinking_fountains,,,,,,,,POINT (144.9534737646951 -37.78533232662653),121
-37.809792956338455,144.95510199726527,Treated Timber Drinking Fountain / Flagstaff Gardens,,drinking_fountains,,,,,,,,POINT (144.95510199726527 -37.809792956338455),109
-37.817906690815356,144.96632571147111,Stainless Steel Drinking Fountain / Leaf Type,,drinking_fountains,,,,,,,,POINT (144.96632571147111 -37.817906690815356),79
-37.807115639803214,144.95593164435638,Stainless Steel Drinking Fountain / Leaf Type,,drinking_fountains,,,,,,,,POINT (144.95593164435638 -37.807115639803214),27
-37.83463602099828,144.97488441712127,Stainless Steel Drinking Fountain / Leaf Type,Bottle Refill Tap,drinking_fountains,,,,,,,,POINT (144.97488441712127 -37.83463602099828),129
-37.826019122772884,144.96821302911962,Stainless Steel Drinking Fountain / Leaf Type,Grant Street Reserve,drinking_fountains,,,,,,,,POINT (144.96821302911962 -37.826019122772884),28
-37.82449321904346,144.945698116347,Stainless Steel Drinking Fountain / Leaf Type,,drinking_fountains,,,,,,,,POINT (144.945698116347 -37.82449321904346),8
-37.818037935423334,144.9566252834487,Stainless Steel Drinking Fountain / Leaf Type,Bottle Refill Tap,drinking_fountains,,,,,,,,POINT (144.9566252834487 -37.818037935423334),131
-37.840591031294394,144.9842020334054,Stainless Steel Drinking Fountain / Leaf Type,Fawkner Park,drinking_fountains,,,,,,,,POINT (144.9842020334054 -37.840591031294394),129
-37.82012801999004,144.94484546150136,Historic or Heritage Drinking Fountains / Victoria Green,,drinking_fountains,,,,,,,,POINT (144.94484546150136 -37.82012801999004),10
-37.82514308986054,144.97830100199906,Stainless Steel Drinking Fountain / Leaf Type,Kings Domain South,drinking_fountains,,,,,,,,POINT (144.97830100199906 -37.82514308986054),110
-37.79690982991827,144.93887017448856,Leaf Type / Dog Bowl ,Clayton Reserve,drinking_fountains,,,,,,,,POINT (144.93887017448856 -37.79690982991827),76
-37.81714667057808,144.93410355599931,Stainless Steel Drinking Fountain / Leaf Type,Ron Barassi Senior Park,drinking_fountains,,,,,,,,POINT (144.93410355599931 -37.81714667057808),11
-37.80774274876369,144.96308654177773,Stainless Steel Drinking Fountain / Leaf Type,Bottle Refill Tap,drinking_fountains,,,,,,,,POINT (144.96308654177773 -37.80774274876369),61
-37.82072500491043,144.97068041637496,Stainless Steel Drinking Fountain / Leaf Type,Alexandra Gardens,drinking_fountains,,,,,,,,POINT (144.97068041637496 -37.82072500491043),28
-37.814286786699014,144.94481901237222,Stainless Steel Drinking Fountain / Leaf Type,,drinking_fountains,,,,,,,,POINT (144.94481901237222 -37.814286786699014),78
-37.813427946638626,144.94277418583766,Stainless Steel Drinking Fountain / Old Docklands Type,,drinking_fountains,,,,,,,,POINT (144.94277418583766 -37.813427946638626),12
-37.79515817674436,144.9710380792056,Drinking Fountain / Type 1,,drinking_fountains,,,,,,,,POINT (144.9710380792056 -37.79515817674436),50
-37.78858107833513,144.9262313297776,Drinking Fountain / Type 2,Stock Route Reserve (KENSINGTON),drinking_fountains,,,,,,,,POINT (144.9262313297776 -37.78858107833513),103
-37.777124890749405,144.95150670643167,Stainless Steel Drinking Fountain / Leaf Type,Royal Park,drinking_fountains,,,,,,,,POINT (144.95150670643167 -37.777124890749405),121
-37.82087796877212,144.97293196853022,Stainless Steel Drinking Fountain / Leaf Type,Alexandra Gardens,drinking_fountains,,,,,,,,POINT (144.97293196853022 -37.82087796877212),127
-37.837913044811074,144.9818740242421,Leaf Type / Dog Bowl ,Fawkner Park,drinking_fountains,,,,,,,,POINT (144.9818740242421 -37.837913044811074),129
-37.8060370483463,144.95639004511094,Drinking Fountain / Type 1,,drinking_fountains,,,,,,,,POINT (144.95639004511094 -37.8060370483463),27
-37.82018203006011,144.96060794598628,Drinking Fountain / Type 1,,drinking_fountains,,,,,,,,POINT (144.96060794598628 -37.82018203006011),14
-37.802013714097406,144.95783228776227,Stainless Steel Drinking Fountain / Leaf Type,,drinking_fountains,,,,,,,,POINT (144.95783228776227 -37.802013714097406),64
-37.81030304680633,144.9786636062916,Leaf Type / With Bottle Refill Tap,Fitzroy Gardens,drinking_fountains,,,,,,,,POINT (144.9786636062916 -37.81030304680633),94
-37.814436444048496,144.97774297882825,Stainless Steel Drinking Fountain / Leaf Type,Bottle Refill Tap,drinking_fountains,,,,,,,,POINT (144.97774297882825 -37.814436444048496),95
-37.82039536598253,144.94148537021343,Stainless Steel Drinking Fountain / Leaf Type,,drinking_fountains,,,,,,,,POINT (144.94148537021343 -37.82039536598253),130
-37.7989933421049,144.94335952463908,unspecified type / Gardiner Reserve,,drinking_fountains,,,,,,,,POINT (144.94335952463908 -37.7989933421049),86
-37.82249308106257,144.97114401537564,Leaf Type / With Bottle Refill Tap,Queen Victoria Gardens,drinking_fountains,,,,,,,,POINT (144.97114401537564 -37.82249308106257),28
-37.81165168802,144.98072416956458,Leaf Type / With Bottle Refill Tap,Fitzroy Gardens,drinking_fountains,,,,,,,,POINT (144.98072416956458 -37.81165168802),94
-37.778630360270995,144.96168045209797,Leaf Type / Dog Bowl ,Princes Park,drinking_fountains,,,,,,,,POINT (144.96168045209797 -37.778630360270995),44
-37.79016688522425,144.92406824328089,Treated Timber Drinking Fountain / Stock Bridge (KENSINGTON),,drinking_fountains,,,,,,,,POINT (144.92406824328089 -37.79016688522425),103
-37.82186723614085,144.9572554993872,Stainless Steel Drinking Fountain / Leaf Type,Bottle Refill Tap,drinking_fountains,,,,,,,,POINT (144.9572554993872 -37.82186723614085),131
-37.81437281760768,144.9443629296941,Stainless Steel Drinking Fountain / Leaf Type,,drinking_fountains,,,,,,,,POINT (144.9443629296941 -37.81437281760768),77
-37.830658429920206,144.97605393970306,Stainless Steel Drinking Fountain / Leaf Type,Bottle Refill Tap,drinking_fountains,,,,,,,,POINT (144.97605393970306 -37.830658429920206),129
-37.82469655350015,144.9721174141578,Stainless Steel Drinking Fountain / Leaf Type,Bottle Refill Tap,drinking_fountains,,,,,,,,POINT (144.9721174141578 -37.82469655350015),28
-37.82317712092532,144.94186784766944,Stainless Steel Drinking Fountain / Leaf Type,Bottle Refill Tap,drinking_fountains,,,,,,,,POINT (144.94186784766944 -37.82317712092532),130
-37.8212095645359,144.9694728091101,Stainless Steel Drinking Fountain / Leaf Type,Queen Victoria Gardens,drinking_fountains,,,,,,,,POINT (144.9694728091101 -37.8212095645359),28
-37.79786751874929,144.92606408339236,Leaf Type / With Bottle Refill Tap,JJ Holland Park,drinking_fountains,,,,,,,,POINT (144.92606408339236 -37.79786751874929),85
-37.79365820618429,144.92352614663906,Leaf Type / Dog Bowl ,Bayswater Road Park,drinking_fountains,,,,,,,,POINT (144.92352614663906 -37.79365820618429),85
-37.79639356481317,144.9464489931069,Leaf Type / With Bottle Refill Tap,Pleasance Gardens,drinking_fountains,,,,,,,,POINT (144.9464489931069 -37.79639356481317),121
-37.77874396844592,144.9527310464918,Leaf Type / With Bottle Refill Tap,Royal Park,drinking_fountains,,,,,,,,POINT (144.9527310464918 -37.77874396844592),121
-37.81961616571647,144.94608043349226,Leaf Type / With Bottle Refill Tap,Docklands Park,drinking_fountains,,,,,,,,POINT (144.94608043349226 -37.81961616571647),10
-37.815185695578855,144.95257756009232,Stainless Steel Drinking Fountain / Leaf Type,,drinking_fountains,,,,,,,,POINT (144.95257756009232 -37.815185695578855),133
-37.824688315009205,144.94695310036423,Stainless Steel Drinking Fountain / Leaf Type,,drinking_fountains,,,,,,,,POINT (144.94695310036423 -37.824688315009205),8
-37.81337112781817,144.94357125504956,Stainless Steel Drinking Fountain / Old Docklands Type,,drinking_fountains,,,,,,,,POINT (144.94357125504956 -37.81337112781817),77
-37.809593623030885,144.96424038761432,Stainless Steel Drinking Fountain / Leaf Type,Bottle Refill Tap,drinking_fountains,,,,,,,,POINT (144.96424038761432 -37.809593623030885),66
-37.7836624497961,144.95999863520058,unspecified type / Princes Park,,drinking_fountains,,,,,,,,POINT (144.95999863520058 -37.7836624497961),44
-37.810693329155406,144.983071937749,Leaf Type / With Bottle Refill Tap,Fitzroy Gardens,drinking_fountains,,,,,,,,POINT (144.983071937749 -37.810693329155406),94
-37.810438177722986,144.96409803572945,Stainless Steel Drinking Fountain / Leaf Type,,drinking_fountains,,,,,,,,POINT (144.96409803572945 -37.810438177722986),66
-37.83028525455125,144.97264952949166,Leaf Type / With Bottle Refill Tap,Shrine of Remembrance Reserve,drinking_fountains,,,,,,,,POINT (144.97264952949166 -37.83028525455125),114
-37.819571118805214,144.97182464875007,unspecified type / Alexandra Park,,drinking_fountains,,,,,,,,POINT (144.97182464875007 -37.819571118805214),7
-37.798924491881245,144.92595592847908,Treated Timber Drinking Fountain / JJ Holland Park,,drinking_fountains,,,,,,,,POINT (144.92595592847908 -37.798924491881245),85
-37.812430045460935,144.96501543858767,Stainless Steel Drinking Fountain / Leaf Type,,drinking_fountains,,,,,,,,POINT (144.96501543858767 -37.812430045460935),19
-37.81767138974231,144.9462535088493,Stainless Steel Drinking Fountain / Leaf Type,,drinking_fountains,,,,,,,,POINT (144.9462535088493 -37.81767138974231),10
-37.80443768421831,144.96343052616893,Stainless Steel Drinking Fountain / Leaf Type,Bottle Refill Tap,drinking_fountains,,,,,,,,POINT (144.96343052616893 -37.80443768421831),54
-37.81027785022815,144.9610923413044,Stainless Steel Drinking Fountain / Leaf Type,Bottle Refill Tap,drinking_fountains,,,,,,,,POINT (144.9610923413044 -37.81027785022815),55
-37.82842091627398,144.98460191449672,Stainless Steel Drinking Fountain / Leaf Type,Bottle Refill Tap,drinking_fountains,,,,,,,,POINT (144.98460191449672 -37.82842091627398),129
-37.78528327065247,144.96619195051946,Drinking Fountain / Monument Style Type 2,Hardy Reserve,drinking_fountains,,,,,,,,POINT (144.96619195051946 -37.78528327065247),44
-37.795118666338084,144.95091878885694,Leaf Type / Dog Bowl ,Royal Park,drinking_fountains,,,,,,,,POINT (144.95091878885694 -37.795118666338084),121
-37.79745516285821,144.92349296059965,Historic or Heritage Drinking Fountains / JJ Holland Park,,drinking_fountains,,,,,,,,POINT (144.92349296059965 -37.79745516285821),85
-37.81152641068227,144.9728037168352,Stainless Steel Drinking Fountain / Leaf Type,Bottle Refill Tap,drinking_fountains,,,,,,,,POINT (144.9728037168352 -37.81152641068227),40
-37.78493695299493,144.96233927588727,Stainless Steel Drinking Fountain / Leaf Type,Princes Park,drinking_fountains,,,,,,,,POINT (144.96233927588727 -37.78493695299493),44
-37.80241728553812,144.97202290316702,Leaf Type / With Bottle Refill Tap,Carlton Gardens North,drinking_fountains,,,,,,,,POINT (144.97202290316702 -37.80241728553812),37
-37.80726039782801,144.95788106825034,Stainless Steel Drinking Fountain / Leaf Type,Bottle Refill Tap,drinking_fountains,,,,,,,,POINT (144.95788106825034 -37.80726039782801),48
-37.809316361164214,144.95453335359068,Stainless Steel Drinking Fountain / Leaf Type,Bottle Refill Tap,drinking_fountains,,,,,,,,POINT (144.95453335359068 -37.809316361164214),109
-37.829762043290245,144.9650239066239,Treated Timber Drinking Fountain / Sturt Street Reserve,,drinking_fountains,,,,,,,,POINT (144.9650239066239 -37.829762043290245),80
-37.80282308235531,144.96630068198394,Drinking Fountain / Monument Style Type 2,Argyle Square,drinking_fountains,,,,,,,,POINT (144.96630068198394 -37.80282308235531),37
-37.81319698844885,144.97374469190206,Stainless Steel Drinking Fountain / Leaf Type,,drinking_fountains,,,,,,,,POINT (144.97374469190206 -37.81319698844885),17
-37.80663190787703,144.95991334440367,Duke & Duchess of York Memorial Drinking Fountain,,drinking_fountains,,,,,,,,POINT (144.95991334440367 -37.80663190787703),82
-37.81331469375451,144.9666513135716,Stainless Steel Drinking Fountain / Leaf Type,Bottle Refill Tap,drinking_fountains,,,,,,,,POINT (144.9666513135716 -37.81331469375451),63
-37.78784948378831,144.92456233354102,Leaf Type / Dog Bowl ,Newmarket Reserve,drinking_fountains,,,,,,,,POINT (144.92456233354102 -37.78784948378831),103
-37.77990316842913,144.96103894553204,Historic or Heritage Drinking Fountains / Princes Park,,drinking_fountains,,,,,,,,POINT (144.96103894553204 -37.77990316842913),44
-37.83210001827241,144.975544260503,Treated Timber Drinking Fountain / Shrine Gardens,,drinking_fountains,,,,,,,,POINT (144.975544260503 -37.83210001827241),129
-37.79889823757444,144.94401837483926,Stainless Steel Drinking Fountain / Leaf Type,Gardiner Reserve,drinking_fountains,,,,,,,,POINT (144.94401837483926 -37.79889823757444),86
-37.811468256332006,144.96175067722208,Stainless Steel Drinking Fountain / Leaf Type,Bottle Refill Tap,drinking_fountains,,,,,,,,POINT (144.96175067722208 -37.811468256332006),47
-37.79735923804568,144.97398629700336,Stainless Steel Drinking Fountain / Leaf Type,Station Street Park,drinking_fountains,,,,,,,,POINT (144.97398629700336 -37.79735923804568),50
-37.794034684551164,144.91961812395766,Leaf Type / Dog Bowl,Stockmans Way,drinking_fountains,,,,,,,,POINT (144.91961812395766 -37.794034684551164),85
-37.80899368753833,144.9728686722591,Stainless Steel Drinking Fountain / Leaf Type,Bottle Refill Tap,drinking_fountains,,,,,,,,POINT (144.9728686722591 -37.80899368753833),40
-37.843405472059246,144.9823703451879,Leaf Type / Dog Bowl,Fawkner Park,drinking_fountains,,,,,,,,POINT (144.9823703451879 -37.843405472059246),129
-37.811184402608355,144.9751861982011,Stainless Steel Drinking Fountain / Leaf Type,,drinking_fountains,,,,,,,,POINT (144.9751861982011 -37.811184402608355),18
-37.81437973339851,144.97601583515225,Stainless Steel Drinking Fountain / Leaf Type,Bottle Refill Tap,drinking_fountains,,,,,,,,POINT (144.97601583515225 -37.81437973339851),75
-37.81942840031672,144.94578822758686,Stainless Steel Drinking Fountain / Leaf Type,,drinking_fountains,,,,,,,,POINT (144.94578822758686 -37.81942840031672),10
-37.81678974689995,144.96933696934119,Stainless Steel Drinking Fountain / Leaf Type,,drinking_fountains,,,,,,,,POINT (144.96933696934119 -37.81678974689995),72
-37.82760195838954,144.9819469602272,Treated Timber Drinking Fountain / Alexandra Park,,drinking_fountains,,,,,,,,POINT (144.9819469602272 -37.82760195838954),129
-37.81818027452629,144.97128244641144,Stainless Steel Drinking Fountain / Leaf Type,Bottle Refill Tap,drinking_fountains,,,,,,,,POINT (144.97128244641144 -37.81818027452629),126
-37.812710697465654,144.96535589295792,Stainless Steel Drinking Fountain / Leaf Type,Bottle Refill Tap,drinking_fountains,,,,,,,,POINT (144.96535589295792 -37.812710697465654),19
-37.811005097961136,144.95862163735288,Stainless Steel Drinking Fountain / Leaf Type,Bottle Refill Tap,drinking_fountains,,,,,,,,POINT (144.95862163735288 -37.811005097961136),107
-37.81956008903184,144.96060041327848,Drinking Fountain / Type 1,,drinking_fountains,,,,,,,,POINT (144.96060041327848 -37.81956008903184),14
-37.815691536791896,144.98226715782863,Leaf Type / Dog Bowl ,Fitzroy Gardens,drinking_fountains,,,,,,,,POINT (144.98226715782863 -37.815691536791896),94
-37.81601000604859,144.97270242239682,Stainless Steel Drinking Fountain / Leaf Type,,drinking_fountains,,,,,,,,POINT (144.97270242239682 -37.81601000604859),123
-37.84249232047023,144.9843961780638,Leaf Type / With Bottle Refill Tap,Fawkner Park,drinking_fountains,,,,,,,,POINT (144.9843961780638 -37.84249232047023),129
-37.815397268275994,144.94056198429413,Stainless Steel Drinking Fountain / Old Docklands Type,,drinking_fountains,,,,,,,,POINT (144.94056198429413 -37.815397268275994),11
-37.79581789599728,144.93892278396697,Leaf Type / Dog Bowl ,Clayton Reserve,drinking_fountains,,,,,,,,POINT (144.93892278396697 -37.79581789599728),76
-37.81884561014748,144.94837757274016,Stainless Steel Drinking Fountain / Leaf Type,,drinking_fountains,,,,,,,,POINT (144.94837757274016 -37.81884561014748),10
-37.8148665286666,144.979341237583,Stainless Steel Drinking Fountain / Leaf Type,,drinking_fountains,,,,,,,,POINT (144.979341237583 -37.8148665286666),116
-37.82000241423202,144.9437625580217,Stainless Steel Drinking Fountain / Leaf Type,,drinking_fountains,,,,,,,,POINT (144.9437625580217 -37.82000241423202),130
-37.818466012455424,144.97388211503446,Drinking Fountain / Type 2,Birrarung Marr,drinking_fountains,,,,,,,,POINT (144.97388211503446 -37.818466012455424),127
-37.79825505675542,144.9705660670761,Drinking Fountain / Monument Style Type 2,,drinking_fountains,,,,,,,,POINT (144.9705660670761 -37.79825505675542),50
-37.81841607031649,144.94658139539987,Stainless Steel Drinking Fountain / Leaf Type,,drinking_fountains,,,,,,,,POINT (144.94658139539987 -37.81841607031649),10
-37.8334339089649,144.98151523466336,Stainless Steel Drinking Fountain / Leaf Type,Kings Domain South,drinking_fountains,,,,,,,,POINT (144.98151523466336 -37.8334339089649),129
-37.81099949197208,144.99096539168528,Drinking Fountain / Type 1,,drinking_fountains,,,,,,,,POINT (144.99096539168528 -37.81099949197208),93
-37.81237811232576,144.96521212904446,Stainless Steel Drinking Fountain / Leaf Type,Bottle Refill Tap,drinking_fountains,,,,,,,,POINT (144.96521212904446 -37.81237811232576),19
-37.8188136383738,144.942903892035,Stainless Steel Drinking Fountain / Leaf Type,,drinking_fountains,,,,,,,,POINT (144.942903892035 -37.8188136383738),130
-37.78073096453612,144.95108741208116,Stainless Steel Drinking Fountain / Leaf Type,Bottle Refill Tap,drinking_fountains,,,,,,,,POINT (144.95108741208116 -37.78073096453612),121
-37.81506309138495,144.96899203807533,Stainless Steel Drinking Fountain / Leaf Type,,drinking_fountains,,,,,,,,POINT (144.96899203807533 -37.81506309138495),39
-37.822177747738806,144.93826895163244,Unknown,,drinking_fountains,,,,,,,,POINT (144.93826895163244 -37.822177747738806),92
-37.813586967977756,144.9803405398592,Leaf Type / With Bottle Refill Tap,Fitzroy Gardens,drinking_fountains,,,,,,,,POINT (144.9803405398592 -37.813586967977756),94
-37.82122088208344,144.94418531958326,Stainless Steel Drinking Fountain / Old Docklands Type,,drinking_fountains,,,,,,,,POINT (144.94418531958326 -37.82122088208344),130
-37.79376491305337,144.97024082502696,Stainless Steel Drinking Fountain / Leaf Type,Reeves Street Park,drinking_fountains,,,,,,,,POINT (144.97024082502696 -37.79376491305337),50
-37.80596124931496,144.97143107579004,Leaf Type / With Bottle Refill Tap,Carlton Gardens South,drinking_fountains,,,,,,,,POINT (144.97143107579004 -37.80596124931496),40
-37.79206873155685,144.9297513827727,Drinking Fountain / Type 1,,drinking_fountains,,,,,,,,POINT (144.9297513827727 -37.79206873155685),85
-37.8163642527943,144.95539891425878,Stainless Steel Drinking Fountain / Leaf Type,Bottle Refill Tap,drinking_fountains,,,,,,,,POINT (144.95539891425878 -37.8163642527943),73
-37.79686727949099,144.952046464975,Treated Timber Drinking Fountain / Ievers Reserve,,drinking_fountains,,,,,,,,POINT (144.952046464975 -37.79686727949099),121
-37.8213916576197,144.94536775680646,Stainless Steel Drinking Fountain / Leaf Type,,drinking_fountains,,,,,,,,POINT (144.94536775680646 -37.8213916576197),8
-37.803371100927336,144.96636401763817,Stainless Steel Drinking Fountain / Leaf Type,Bottle Refill Tap,drinking_fountains,,,,,,,,POINT (144.96636401763817 -37.803371100927336),37
-37.813892178607055,144.9641120868484,Stainless Steel Drinking Fountain / Leaf Type,,drinking_fountains,,,,,,,,POINT (144.9641120868484 -37.813892178607055),2
-37.82034342836768,144.94031908099987,Stainless Steel Drinking Fountain / Leaf Type,,drinking_fountains,,,,,,,,POINT (144.94031908099987 -37.82034342836768),92
-37.78098685657206,144.962456506622,Stainless Steel Drinking Fountain / Leaf Type,Princes Park,drinking_fountains,,,,,,,,POINT (144.962456506622 -37.78098685657206),44
-37.82120300569749,144.9464400812558,Stainless Steel Drinking Fountain / Leaf Type,Bottle Refill Tap,drinking_fountains,,,,,,,,POINT (144.9464400812558 -37.82120300569749),8
-37.8386331437282,144.97805941362765,Leaf Type / Dog Bowl ,Fawkner Park,drinking_fountains,,,,,,,,POINT (144.97805941362765 -37.8386331437282),129
-37.79775185327968,144.96744736482998,Drinking Fountain / Lygon St Type,,drinking_fountains,,,,,,,,POINT (144.96744736482998 -37.79775185327968),50
-37.81553989313365,144.95836642425357,Stainless Steel Drinking Fountain / Leaf Type,Bottle Refill Tap,drinking_fountains,,,,,,,,POINT (144.95836642425357 -37.81553989313365),36
-37.80566602896913,144.94256675118035,Leaf Type / Dog Bowl ,Railway Place And Miller Street Reserve,drinking_fountains,,,,,,,,POINT (144.94256675118035 -37.80566602896913),87
-37.80262121799853,144.96563804631617,Stainless Steel Drinking Fountain / Leaf Type,Argyle Square,drinking_fountains,,,,,,,,POINT (144.96563804631617 -37.80262121799853),112
-37.81378184056998,144.94225864282328,Stainless Steel Drinking Fountain / Leaf Type,,drinking_fountains,,,,,,,,POINT (144.94225864282328 -37.81378184056998),12
-37.80980631970157,144.97383443627947,Stainless Steel Drinking Fountain / Leaf Type,Parliament Reserve,drinking_fountains,,,,,,,,POINT (144.97383443627947 -37.80980631970157),40
-37.802215372127485,144.96301319081624,Stainless Steel Drinking Fountain / Leaf Type,Bottle Refill Tap,drinking_fountains,,,,,,,,POINT (144.96301319081624 -37.802215372127485),46
-37.779553322018664,144.93984653851456,Stainless Steel Drinking Fountain / Leaf Type,Parkville Gardens,drinking_fountains,,,,,,,,POINT (144.93984653851456 -37.779553322018664),103
-37.832243003760865,144.97302849826244,Historic or Heritage Drinking Fountains / Shrine Gardens,,drinking_fountains,,,,,,,,POINT (144.97302849826244 -37.832243003760865),128
-37.81276680167682,144.9815543655956,Stainless Steel Drinking Fountain / Leaf Type,Bottle Refill Tap,drinking_fountains,,,,,,,,POINT (144.9815543655956 -37.81276680167682),94
-37.78205389103602,144.95697021635434,Historic or Heritage fountains / Royal Park,,drinking_fountains,,,,,,,,POINT (144.95697021635434 -37.78205389103602),121
-37.803994634967296,144.95909066756946,Toilet 140,,toilets,no,yes,no,City of Melbourne,no,Queensberry Street (Opposite 286 Queensberry Street),,POINT (144.95909066756946 -37.803994634967296),48
-37.813837792176315,144.96309721024045,Toilet 6,,toilets,yes,no,no,City of Melbourne,no,Elizabeth Street (Toilet Adjacent 200 Elizabeth Street),,POINT (144.96309721024045 -37.813837792176315),52
-37.80463970714722,144.96285021945613,Toilet 142,,toilets,no,yes,no,City of Melbourne,no,Queensberry Street (Adjacent 179 Queensberry Street),,POINT (144.96285021945613 -37.80463970714722),54
-37.78622124839705,144.95500087587342,Royal Park Brens Pavilion,,toilets,yes,yes,no,City of Melbourne,no,,,POINT (144.95500087587342 -37.78622124839705),121
-37.79373229128235,144.93035186163308,Toilet 177,,toilets,yes,yes,yes,City of Melbourne,no,Bellair Street (Opposite 180 Bellair Street),,POINT (144.93035186163308 -37.79373229128235),76
-37.815278082082735,144.97758877995489,Toilet 118,,toilets,yes,yes,yes,City of Melbourne,no,Fitzroy Gardens (2 Lansdowne Street),,POINT (144.97758877995489 -37.815278082082735),96
-37.8082334704767,144.96018687493768,Toilet 34,,toilets,yes,yes,yes,City of Melbourne,no,Franklin Street (Opposite 80 Franklin Street),,POINT (144.96018687493768 -37.8082334704767),26
-37.81521576619692,144.96694328510318,Town Hall Melbourne (200 Collins Street),,toilets,yes,yes,yes,City of Melbourne,yes,,,POINT (144.96694328510318 -37.81521576619692),65
-37.790174410412384,144.94366905096862,Toilet 131,,toilets,yes,yes,yes,City of Melbourne,no,Royal Park (Flemington RdNear North Park Tennis Club),,POINT (144.94366905096862 -37.790174410412384),121
-37.806805767380254,144.96264850030644,Toilet 146,,toilets,yes,no,no,City of Melbourne,no,Swanston Street (Opposite 475-511 Swanston Street),,POINT (144.96264850030644 -37.806805767380254),61
-37.81940611413847,144.96127683121782,Toilet 3,,toilets,yes,yes,yes,City of Melbourne,no,Flinders Street (399 Flinders Street),,POINT (144.96127683121782 -37.81940611413847),14
-37.81859887229392,144.97105956826817,Toilet 48,,toilets,yes,yes,yes,City of Melbourne,no,Birrarung Marr (Opposite Artplay),,POINT (144.97105956826817 -37.81859887229392),126
-37.830849124048974,144.97518226820782,Toilet 104,,toilets,yes,yes,yes,City of Melbourne,no,Kings Domain South (off Birdwood Avenue),,POINT (144.97518226820782 -37.830849124048974),129
-37.81324543360198,144.96689658968143,Toilet 46,,toilets,yes,yes,yes,City of Melbourne,no,Bourke Street (opposite 225 Bourke Street),,POINT (144.96689658968143 -37.81324543360198),88
-37.82289159858857,144.975280957334,Toilet 109,,toilets,yes,yes,yes,City of Melbourne,yes,Kings Domain Myer Music Bowl Rear of,,POINT (144.975280957334 -37.82289159858857),110
-37.795523148389,144.952142962802,Toilet 55,,toilets,yes,yes,yes,City of Melbourne,no,"Royal Park (Nature Play, Opposite 51 Gatehouse Street)",,POINT (144.952142962802 -37.795523148389),121
-37.8203552728411,144.97331290887433,Toilet 112,,toilets,yes,yes,yes,City of Melbourne,no,Alexandra Gardens (Riverslide Skate Park),,POINT (144.97331290887433 -37.8203552728411),127
-37.817903197056154,144.9662642552638,Toilet 41,,toilets,yes,yes,yes,City of Melbourne,no,Flinders Street (No 245 Flinders Street Station),,POINT (144.9662642552638 -37.817903197056154),79
-37.79679899805757,144.95196665126468,Toilet 136,,toilets,yes,yes,yes,City of Melbourne,no,Ievers ReserveFlemington Road,,POINT (144.95196665126468 -37.79679899805757),121
-37.80891324235132,144.95504018635694,Toilet 154,,toilets,yes,yes,yes,City of Melbourne,no,Flagstaff Gardens (cnr William & Dudley),,POINT (144.95504018635694 -37.80891324235132),27
-37.818924455699296,144.9342385117904,"Victoria Harbour, Shed 2 (North Wharf Road)",,toilets,yes,yes,yes,City of Melbourne,no,,,POINT (144.9342385117904 -37.818924455699296),91
-37.815989825999864,144.97279836576897,Toilet 14,,toilets,no,yes,no,City of Melbourne,no,Flinders Street (27 Flinders Street),,POINT (144.97279836576897 -37.815989825999864),123
-37.82764304616528,144.98181166075952,Toilet 107,,toilets,yes,yes,yes,City of Melbourne,no,Alexandra Park,,POINT (144.98181166075952 -37.82764304616528),129
-37.82172068166997,144.95557809313962,Toilet 169,,toilets,yes,yes,yes,City of Melbourne,no,Batman Park (2A Spencer Street),,POINT (144.95557809313962 -37.82172068166997),25
-37.81343920794399,144.9629227264507,Toilet 6,,toilets,no,yes,no,City of Melbourne,no,Elizabeth Street (Toilet Adjacent 200 Elizabeth Street),,POINT (144.9629227264507 -37.81343920794399),52
-37.814345522392365,144.9551179464378,Toilet 1,,toilets,yes,yes,yes,City of Melbourne,no,Lonsdale Street (Opposite 581 Lonsdale Street),,POINT (144.9551179464378 -37.814345522392365),132
-37.80625893301874,144.9692027022002,Toilet 145,,toilets,yes,yes,yes,City of Melbourne,no,Carlton Gardens South (Opposite 39 Rathdowne Street),,POINT (144.9692027022002 -37.80625893301874),37
-37.80894206847336,144.96564884552268,Toilet 7,,toilets,no,yes,no,City of Melbourne,no,Latrobe Street (Adjacent 120 La Trobe Street),,POINT (144.96564884552268 -37.80894206847336),66
-37.80945202894246,144.97307695563703,Toilet 124,,toilets,no,yes,no,City of Melbourne,no,Nicholson Street (1A Nicholson Street),,POINT (144.97307695563703 -37.80945202894246),40
-37.82331083443533,144.94182760665478,Toilet 181,,toilets,yes,yes,yes,City of Melbourne,yes,Point Park (Point Park Crescent),,POINT (144.94182760665478 -37.82331083443533),130
-37.81722059052804,144.93400271183995,Ron Barassi Senior Park Pavilion,,toilets,U,U,U,City of Melbourne,U,,,POINT (144.93400271183995 -37.81722059052804),11
-37.8100356799286,144.9699024633049,Toilet 11,,toilets,yes,yes,yes,City of Melbourne,no,Lonsdale Street (Opposite 88 Lonsdale Street),,POINT (144.9699024633049 -37.8100356799286),20
-37.80954604636232,144.9694071187106,Toilet 12,,toilets,no,yes,no,City of Melbourne,no,Exhibition Street (Opposite 242 Exhibition Street),,POINT (144.9694071187106 -37.80954604636232),20
-37.81094232809633,144.98685873937842,Toilet 117,,toilets,yes,yes,yes,City of Melbourne,no,Powlett Reserve (Opposite 128 Albert Street),,POINT (144.98685873937842 -37.81094232809633),93
-37.82175860330799,144.9473834186781,Toilet 182,,toilets,yes,yes,yes,City of Melbourne,yes,Docklands Park South25 Harbour Esplanade,,POINT (144.9473834186781 -37.82175860330799),8
-37.803077866412245,144.94986517956968,Toilet 170,,toilets,no,yes,no,City of Melbourne,no,Queensberry Street (Opposite 530 Queensberry Street),,POINT (144.94986517956968 -37.803077866412245),102
-37.845206563009405,144.9826144313013,Toilet 42,,toilets,yes,yes,yes,City of Melbourne,no,"Fawkner Park, Opposite 55 Commercial Road",,POINT (144.9826144313013 -37.845206563009405),129
-37.798125461506075,144.92642466756246,Toilet 162,,toilets,yes,yes,yes,City of Melbourne,no,"JJ Holland Park (Opposite, 48 Altona Street)",,POINT (144.92642466756246 -37.798125461506075),85
-37.806379618970524,144.95905779158946,Queen Victoria Market (Food Court,,toilets,yes,yes,no,City of Melbourne,no,65-81 Victoria Street),,POINT (144.95905779158946 -37.806379618970524),48
-37.83825284124979,144.9843892199417,Toilet 44,,toilets,yes,yes,yes,City of Melbourne,no,"Fawkner Park, Opposite 150W Toorak Road",,POINT (144.9843892199417 -37.83825284124979),129
-37.820342128586276,144.96421972799456,Toilet 172,,toilets,yes,yes,yes,City of Melbourne,no,Southbank Promenade (opposite Esso House),,POINT (144.96421972799456 -37.820342128586276),35
-37.803094275484256,144.94994632091922,Toilet 13,,toilets,,,,City of Melbourne,no,Queensberry Street (Opposite 530 Queensberry Street),,POINT (144.94994632091922 -37.803094275484256),102
-37.81203615704364,144.98307493665166,Toilet 119,,toilets,yes,yes,yes,City of Melbourne,no,Fitzroy Gardens Toilets (150 Clarendon Street),,POINT (144.98307493665166 -37.81203615704364),94
-37.82691574923447,144.9746477838788,Toilet 106,,toilets,yes,yes,no,City of Melbourne,no,Kings Domain Government House Drive,,POINT (144.9746477838788 -37.82691574923447),115
-37.80612149907781,144.95653844268273,Queen Victoria Market (153 Victoria Street),,toilets,yes,yes,no,City of Melbourne,no,,,POINT (144.95653844268273 -37.80612149907781),27
-37.819795975740334,144.93766540530564,"Victoria Harbour, Shed 3 (North Wharf Road)",,toilets,no,yes,no,City of Melbourne,no,,,POINT (144.93766540530564 -37.819795975740334),91
-37.7855983874526,144.9630353603256,Toilet 128,,toilets,yes,yes,yes,City of Melbourne,no,Princes Park South Playground (Princes Park Drive),,POINT (144.9630353603256 -37.7855983874526),44
-37.81435831108069,144.94168216712015,"Saint Mangos Lane, The Palladio (New Quay)",,toilets,yes,yes,yes,City of Melbourne,no,,,POINT (144.94168216712015 -37.81435831108069),12
-37.81746989209639,144.96025433528794,Toilet 4,,toilets,yes,yes,yes,City of Melbourne,no,Market Street (Opposite 74 Market Street),,POINT (144.96025433528794 -37.81746989209639),36
-37.802645554985105,144.969821287215,Toilet 138,,toilets,yes,yes,yes,City of Melbourne,no,Carlton Gardens North (Opposite 199 Rathdowne Street),,POINT (144.969821287215 -37.802645554985105),37
-37.793011678725755,144.97399489761827,Toilet 133- Canning Street Reserve (49 Princes Street),,toilets,no,yes,no,City of Melbourne,no,,,POINT (144.97399489761827 -37.793011678725755),50
-37.840147692965054,144.98138308753738,Toilet 102,,toilets,no,yes,no,City of Melbourne,no,"Fawkner Park, North Pavilion (Male)",,POINT (144.98138308753738 -37.840147692965054),129
-37.798064023886866,144.92110584392117,Toilet 173,,toilets,yes,yes,yes,City of Melbourne,no,"JJ Holland Park, Skate Park (113 Kensington Road)",,POINT (144.92110584392117 -37.798064023886866),85
-37.8129330992456,144.9600121469519,Toilet 36,,toilets,yes,yes,yes,City of Melbourne,U,Lonsdale Street (Opposite 424 Lonsdale Street),,POINT (144.9600121469519 -37.8129330992456),56
-37.79870959701599,144.96759388009733,Toilet 137,,toilets,yes,yes,no,City of Melbourne,no,Faraday Street (Opposite 208-212 Faraday Street),,POINT (144.96759388009733 -37.79870959701599),50
-37.830132537548096,144.96501222835187,Toilet 105 -Sturt Street Reserve (280 Sturt Street),,toilets,yes,yes,no,City of Melbourne,no,,,POINT (144.96501222835187 -37.830132537548096),80
-37.78187131786685,144.95614252894822,Royal Park Golf Course Club House,,toilets,yes,yes,no,City of Melbourne,no,,,POINT (144.95614252894822 -37.78187131786685),121
-37.78848882114304,144.92356372197432,Newmarket Reserve (26 Smithfield Road),,toilets,yes,yes,no,City of Melbourne,no,,,POINT (144.92356372197432 -37.78848882114304),103
-37.81384641664995,144.97137409472109,Toilet 13,,toilets,yes,yes,yes,City of Melbourne,no,Exhibition Street (Opposite 77 Exhibition Street),,POINT (144.97137409472109 -37.81384641664995),39
-37.7789496090064,144.96046591899102,Toilet 127,,toilets,yes,yes,yes,City of Melbourne,no,Princes Park Royal Parade (near Park Street),,POINT (144.96046591899102 -37.7789496090064),44
-37.82100477977538,144.97593322373976,Toilet 111,,toilets,yes,yes,yes,City of Melbourne,no,Birrarung Marr Speakers Corner,,POINT (144.97593322373976 -37.82100477977538),110
-37.84001779326322,144.9812270146221,Toilet 102,,toilets,yes,no,no,City of Melbourne,no,"Fawkner Park, North Pavilion (Female)",,POINT (144.9812270146221 -37.84001779326322),129
-37.80682129201847,144.95874700464088,Queen Victoria Market,,toilets,yes,yes,no,City of Melbourne,no,"(Meat Hall / ""H"" Shed)",,POINT (144.95874700464088 -37.80682129201847),48
-37.813418435008906,144.97746700744847,Toilet 122,,toilets,yes,yes,yes,City of Melbourne,no,Treasury Gardens (Store and Toilet),,POINT (144.97746700744847 -37.813418435008906),95
-37.78303248417686,144.94185635299425,Toilet 120,,toilets,yes,yes,yes,City of Melbourne,no,"Royal Park, Wetland (off Oak Street)",,POINT (144.94185635299425 -37.78303248417686),103
-37.83393826633729,144.98178404635058,Toilet 103,,toilets,yes,yes,yes,City of Melbourne,no,Kings Domain South (Opposite 169 Domain Road),,POINT (144.98178404635058 -37.83393826633729),129
-37.807831221471965,144.95795526595654,Queen Victoria Market (465 Queen Street),,toilets,yes,yes,yes,City of Melbourne,yes,,,POINT (144.95795526595654 -37.807831221471965),51
-37.80207629420745,144.96642403988702,Toilet 178,,toilets,yes,yes,yes,City of Melbourne,no, Argyle Place North (Opposite 4 Argyle Place North),,POINT (144.96642403988702 -37.80207629420745),31
-37.79251146448698,144.95685172084129,Toilet 100,,toilets,yes,yes,yes,City of Melbourne,no,Royal ParkNative Garden (off Gatehouse Street),,POINT (144.95685172084129 -37.79251146448698),121
-37.812240775587135,144.97392555886628,Toilet 125,,toilets,yes,no,no,City of Melbourne,no,Gordon Reserve (74-108 Spring Street),,POINT (144.97392555886628 -37.812240775587135),18
-37.78790482714769,144.95949479077186,Toilet 52,,toilets,yes,yes,yes,City of Melbourne,no,Princes Park (Adjacent Southern Sports Pavilion),,POINT (144.95949479077186 -37.78790482714769),44
-37.80271182455448,144.9622681269577,Toilet 179,,toilets,yes,yes,yes,City of Melbourne,no,Lincoln Square (138-142 Bouverie Street),,POINT (144.9622681269577 -37.80271182455448),46
-37.815838165017645,144.9610620730027,Toilet 43,,toilets,yes,yes,yes,City of Melbourne,no,Queen Street (opposite 113 Queen Street),,POINT (144.9610620730027 -37.815838165017645),36
-37.82294828867767,144.97098568179825,Toilet 110,,toilets,yes,yes,yes,City of Melbourne,no,Queen Victoria Gardens (Linlithgow Avenue),,POINT (144.97098568179825 -37.82294828867767),28
-37.8260106301916,144.96835314420716,,"Sandpit, Carousel, Slide, Swing",playgrounds,,,,1487286,,,Grant Street Playground,POINT (144.96835314420716 -37.8260106301916),28
-37.8218009873152,144.94722750144075,,"Carousels, platforms, swing, slide, public toilet.",playgrounds,,,,1450822,,,Docklands Park Playground,POINT (144.94722750144075 -37.8218009873152),8
-37.80284131718294,144.9626564799592,,"Swings, spinners, double slide, public toilet, picnic table, lots of shade.",playgrounds,,,,1450819,,,Lincoln Square Playground,POINT (144.9626564799592 -37.80284131718294),46
-37.8095257090171,144.95471867901864,,"Sandpit with diggers, spiral slide, swings, sandpit, balancing bridges, public toilet, barbecue, picnic table, shade.",playgrounds,,,,1719660,,,Flagstaff Gardens Playground,POINT (144.95471867901864 -37.8095257090171),109
-37.7987885878955,144.94393836858487,,"Multi-level play structure, climbers, see-saw, swings, cubby, barbecue, picnic tables, some shade.",playgrounds,,,,1450810,,,Gardiner Reserve Playground,POINT (144.94393836858487 -37.7987885878955),86
-37.82307176194582,144.94158310181788,,"Bells, Musical Wall, Sand pit, Swing, Carousel and Slide",playgrounds,,,,1590516,,,Point Park Playground,POINT (144.94158310181788 -37.82307176194582),130
-37.83903295479282,144.98047560545143,,"Toddler playspace - slide, swings.",playgrounds,,,,1450835,,,Fawkner Park Toddler Playspace,POINT (144.98047560545143 -37.83903295479282),129
-37.79520740161526,144.96970314493564,,1 x 5 way swing,playgrounds,,,,1603370,,,Neill Street Reserve,POINT (144.96970314493564 -37.79520740161526),50
-37.79616817586979,144.9267597762389,,,playgrounds,,,,1554261,,,Warun Biik Playground,POINT (144.9267597762389 -37.79616817586979),85
-37.79652622815778,144.95277288002004,,"Swings, rocker, fort, slide and climbing features, public toilet, lots of shade.",playgrounds,,,,1450813,,,Ievers Reserve Playground,POINT (144.95277288002004 -37.79652622815778),121
-37.81158137797367,144.9865706304634,,"Fort tower, sand pit, 4-way spring rocker, swings, tic-tac-toe, chalkboard, public toilet, picnic table, some shade, disabled access.",playgrounds,,,,1450804,,,Powlett Reserve Playground,POINT (144.9865706304634 -37.81158137797367),93
-37.79980317243133,144.94146553497296,,Play court space with basketball backboard only,playgrounds,,,,1618816,,,North Melbourne Recreation Reserve Play Court,POINT (144.94146553497296 -37.79980317243133),86
-37.840668223257225,144.98402897622898,,"Climber, see saws, spring rider, spring rocker, swings, chin up bars, some shade.",playgrounds,,,,1450801,,,Fawkner Park East,POINT (144.98402897622898 -37.840668223257225),129
-37.79319152147504,144.93241661314613,,"Swing, spring riders, combination unit.",playgrounds,,,,1450824,,,Robertson Street Park Playground,POINT (144.93241661314613 -37.79319152147504),76
-37.790191684378094,144.93108110732882,,"Swing, spring riders, combination unit.",playgrounds,,,,1450823,,,Parsons Reserve Playground,POINT (144.93108110732882 -37.790191684378094),103
-37.7988307430471,144.9403321720667,,"Basketball rings, synthetic surface",playgrounds,,,,1775918,,,North Melbourne Recreation Reserve Multi Purpose Court,POINT (144.9403321720667 -37.7988307430471),86
-37.811744939010325,144.9818267986077,,"Dragon slide, sandpit, giraffe swing, public toilet, lots of shade.",playgrounds,,,,1450805,,,Fitzroy Gardens Playground,POINT (144.9818267986077 -37.811744939010325),94
-37.8220676003373,144.93654191133373,,,playgrounds,,,,1764817,,,Wharfs Landing Park,POINT (144.93654191133373 -37.8220676003373),91
-37.789037850036166,144.9284357699595,,Swing.,playgrounds,,,,1450826,,,Kensington Hall Reserve Playground,POINT (144.9284357699595 -37.789037850036166),103
-37.79630622554574,144.97280123149434,,Play panel and small stage area. Some disabled access.,playgrounds,,,,1450831,,,Canning and Palmerston Streets Playground,POINT (144.97280123149434 -37.79630622554574),50
-37.820490837663186,144.97302701268373,,"Concrete skate ramp, public toilet.",playgrounds,,,,1450832,,,Riverslide Skate Park,POINT (144.97302701268373 -37.820490837663186),127
-37.79525908086376,144.93078140282728,,"Spring rocker, swings, platform, slide, picnic table.",playgrounds,,,,1450809,,,Bellair Street Reserve Playground,POINT (144.93078140282728 -37.79525908086376),76
-37.820285121736624,144.94088305188848,,,playgrounds,,,,1588995,,,Buluk Park Playground,POINT (144.94088305188848 -37.820285121736624),130
-37.785385696902736,144.96275926118628,,"Tower platforms, sandpits, rockers, see saw, slide, 5-way swing, boardwalk, fitness track, public toilet, barbecue, picnic table, some shade.",playgrounds,,,,1720527,,,Princes Park South Playground,POINT (144.96275926118628 -37.785385696902736),44
-37.795044731386305,144.9517539147769,,,playgrounds,,,,1588994,,,NaturePlay Playground Royal Park,POINT (144.9517539147769 -37.795044731386305),121
-37.779582393504235,144.93975987147903,,"Spring rider, swing, carousel, combination unit.",playgrounds,,,,1450833,,,Galada Avenue Reserve Playground,POINT (144.93975987147903 -37.779582393504235),103
-37.79377873282799,144.92359592824823,,"Swings, rockers, slides, play units with mirror panel, abacus, shop front, clock and steering wheel, rubber pathways, barbecue, picnic table, shade, disabled access.",playgrounds,,,,1450807,,,Bayswater Road Park Playground,POINT (144.92359592824823 -37.79377873282799),85
-37.794654989366286,144.9191944946368,,Basketball court.,playgrounds,,,,1450834,,,The Crescent Reserve Playground,POINT (144.9191944946368 -37.794654989366286),85
-37.79003673843191,144.9256728627734,,"Combination unit, spring rider.",playgrounds,,,,1450827,,,Liddy Street Reserve Playground,POINT (144.9256728627734 -37.79003673843191),103
-37.82611400247897,144.96163469344134,,"Swings, slide, rock wall, monkey bars, carousel, see saw, sand pit, tunnels and barrels.  Temporary basketball court with backboard and ring.",playgrounds,,,,1660076,,,Boyd Community Hub,POINT (144.96163469344134 -37.82611400247897),90
-37.7978870186655,144.9259420093936,,"Pirate ship play structure, rocking swing, rocking table, see saw, spinner, public toilet, barbecue, picnic table, lots of shade.",playgrounds,,,,1450808,,,Holland Park Playground,POINT (144.9259420093936 -37.7978870186655),85
-37.82015371307213,144.94476081594655,,,playgrounds,,,,1513026,,,Victoria Green Playground,POINT (144.94476081594655 -37.82015371307213),10
-37.838793729508225,144.9850522156393,,"Chin up bar, parallel bars, balance beam, some shade.",playgrounds,,,,1450806,,,Fawkner Park North East,POINT (144.9850522156393 -37.838793729508225),129
-37.781221527129574,144.96214347994342,,"Swing, spring riders, see saw.",playgrounds,,,,1450816,,,Princes Park North Playground,POINT (144.96214347994342 -37.781221527129574),44
-37.796615304958806,144.92060508965284,,"Swing, see saw, small tower, shade structure, stockyard style fencing.",playgrounds,,,,1450817,,,Mercantile Parade and Tankard Street Playground,POINT (144.92060508965284 -37.796615304958806),85
-37.79356615908827,144.94008253076515,,"Combination units, swing, barbeque, some shade.",playgrounds,,,,1450825,,,North Melbourne Community Centre Playground,POINT (144.94008253076515 -37.79356615908827),76
-37.818149015388066,144.9712309067726,,"Rock and rope climbing features, swinging hammocks, liberty swing for wheelchairs, quiet areas and active play areas, public toilet, picnic table, some shade, disabled access.",playgrounds,,,,1450820,,,Birrarung Marr Artplay,POINT (144.9712309067726 -37.818149015388066),126
-37.79542804645323,144.92088329716032,,"Slide, sheep sculptures.",playgrounds,,,,1450818,,,Mercantile Parade and Newman Street Playground,POINT (144.92088329716032 -37.79542804645323),85
-37.79831312148108,144.9212247231253,,"Skate park, BMX track, public toilet.",playgrounds,,,,1450828,,,Holland Park Extreme Sports Precinct,POINT (144.9212247231253 -37.79831312148108),85
-37.8020962906074,144.97067458905988,,"Cubby with slide, swings, track glide, sandpit, climbing frame, some shade, disabled access, public toilet.",playgrounds,,,,1450821,,,Carlton Gardens Playground,POINT (144.97067458905988 -37.8020962906074),37
-37.816522726624655,144.93375500298453,,,playgrounds,,,,1631085,,,Ron Barassi Senior Park Playground,POINT (144.93375500298453 -37.816522726624655),11
-37.797285033377186,144.9739866829798,,Climbers x 3,playgrounds,,,,1557352,,,Station Street Park Playground,POINT (144.9739866829798 -37.797285033377186),50
-37.808765867846496,144.94479636670366,,"Slides, carousel, excavator, sandplit and swings.",playgrounds,,,,1450811,,,Hawke & Adderley Streets Playground,POINT (144.94479636670366 -37.808765867846496),77
-37.80718322149278,144.95159199209743,,"Fitness track, slide, rockers, climbing features, lots of shade, some disabled access.",playgrounds,,,,1450812,,,Eades Park Playground,POINT (144.95159199209743 -37.80718322149278),70
-37.78509788859067,144.94203123068968,,"Wooden tower, slide, swing, rockers, stepping posts, grassed areas.",playgrounds,,,,1450814,,,Manningham Street Playground,POINT (144.94203123068968 -37.78509788859067),121
