name,address,type,website,latitude,longitude,category
Alumbra,"Shed 9, Victoria Harbour, Docklands, 3008",Nightclub,http://www.alumbra.com.au/,-37.81656881500009,144.94383499834845,music_venues
Sofitel Melbourne On Collins,"Sofitel Hotel, Collins Tower, 25 Collins Street, Melbourne, 3000",Accommodation,http://www.sofitel-melbourne.com.au/,-37.81376526700552,144.9729234875978,music_venues
Bar Nacional,"Tenancy 47, Ground, 727 Collins Street, Docklands, 3008",Bar,http://www.barnacional.com.au/,-37.82046725912159,144.94982290293075,music_venues
Bomba Tapas Bar and Rooftop,"Ground & Rooftop, 103 Lonsdale Street, Melbourne, 3000",Bar,https://bombabar.com.au/,-37.81038063462455,144.9692357633733,music_venues
Melbourne Museum,"11 Nicholson Street, Carlton, 3053",Museum,https://museumsvictoria.com.au/melbournemuseum/,-37.80372847051283,144.97373148063383,music_venues
"Club 23, Crown Melbourne","Restaurant Crown Towers Hotel, Crown Casino, 8 Whiteman Street, Southbank, 3006",Nightclub,http://www.level3atcrown.com.au/,-37.82243272720292,144.9601748810828,music_venues
Aria Bar & Lounge,"Podium, 1 Southgate Avenue, Southbank, 3006",Bar,http://www.sebeldocklands.com.au/en/meeting-rooms/aria-bar-and-events.html,-37.82047861515797,144.96589092458512,music_venues
Paris Cat Jazz Club,"4-6 Goldie Place, Melbourne, 3000",Venue,http://pariscat.com.au/,-37.813558526665716,144.96075407581748,music_venues
Clique Bar,"Level 1, 26 King Street, Melbourne, 3000",Nightclub,http://www.cliquebar.com.au/,-37.81961099011078,144.95739295718033,music_venues
Man Tong Kitchen,"Shop 46B, Ground, 8 Whiteman Street, Southbank, 3006",Bar,http://www.mantongkitchen.com.au/,-37.82237743370056,144.96013664101957,music_venues
Randy Dragon,"Unit 1, Basement, 313-315 Flinders Lane, Melbourne, 3000",Bar,http://www.randydragon.com.au/,-37.817456737067324,144.96378913395765,music_venues
QV Melbourne,"278-300 Swanston Street, Melbourne, 3000",Bar,http://www.qv.com.au,-37.81103540168751,144.96467176356475,music_venues
The Elephant and Wheelbarrow,"94-96 Bourke Street, Melbourne, 3000",Hotel,https://bourkest.elephantandwheelbarrow.com.au/,-37.812003038513254,144.97032587079298,music_venues
RACV City Club,"501 Bourke Street, Melbourne, 3000",Hotel,https://www.racv.com.au/travel-leisure/racv-club/city-club.html,-37.81557207833605,144.9591017007643,music_venues
Roxanne Bar,"Level 2-3, 2 Coverlid Place, Melbourne, 3000",Venue,https://www.facebook.com/roxannebarmelbourne/,-37.812290077617654,144.96856088051632,music_venues
The Palms At Crown,"Shop 54A, Level 2, 8 Whiteman Street, Southbank, 3006",Bar,https://www.crownmelbourne.com.au/events-conferences/function-venues/the-palms-at-crown,-37.82237605653925,144.96005715393778,music_venues
Lion Hotel at Melbourne Central,"Shop 303, Level 3, 300 Lonsdale Street, Melbourne, 3000",Bar,http://www.acemelbourne.com.au/mclion/,-37.81049466323917,144.96260892303593,music_venues
The Drunken Poet,"Ground, 65 Peel Street, West Melbourne, 3003",Bar,http://www.thedrunkenpoet.com.au/,-37.80669546524965,144.95560816104967,music_venues
Urban Central Backpackers,"Pt Ground & Levels 1-5, 334-342 City Road, Southbank, 3006",Venue,http://urbancentral.com.au/,-37.82795247595504,144.95758234751773,music_venues
Workshop,"Level 1, 413-417 Elizabeth Street, Melbourne, 3000",Bar,http://www.workshopbar.com.au/,-37.80915406493112,144.9606400792035,music_venues
Carlton Yacht Club,"298 Lygon Street, Carlton, 3053",,,-37.799970643253964,144.96723895405708,music_venues
Melbourne Town Hall,"90-130 Swanston Street, Melbourne, 3000",Performance space,http://www.melbourne.vic.gov.au/community/hubs-bookable-spaces/Pages/melbourne-town-hall-rooms-for-hire.aspx,-37.814912543799636,144.9664536170434,music_venues
Crown Casino,"8 Whiteman Street, Southbank, 3006",Casino,http://www.level3atcrown.com.au/,-37.822486643580916,144.96013363399763,music_venues
The Forum Theatre,"150-162 Flinders Street, Melbourne, 3000",Venue,https://forummelbourne.com.au/,-37.81672152422505,144.9694950938554,music_venues
The Bottom End,"577-583 Little Collins Street, Melbourne, 3000",,,-37.81764606140045,144.95554920127617,music_venues
Eau de Vie,"Rear, 88 Flinders Street, Melbourne, 3000",Bar,,-37.81602795476901,144.97181318906033,music_venues
Duke Of Kent Hotel,"293-299 La Trobe Street, Melbourne, 3000",Venue,,-37.81071423194513,144.96049941842946,music_venues
Polepole Bar,"Ground & Level 1, 267 Little Collins Street, Melbourne, 3000",Bar,http://www.polepolebar.com.au/,-37.81471253447779,144.96556243961416,music_venues
GoGo Bar,"Basement, 125 Flinders Lane, Melbourne, 3000",Bar,https://www.chinchinrestaurant.com.au/melbourne/gogo-bar/,-37.81553872471665,144.97036036207516,music_venues
New Guernica,"Level 2, 318-322 Little Collins Street, Melbourne, 3000",Nightclub,http://www.newguernica.com.au/,-37.81503810840179,144.96410864029963,music_venues
Capitano,"421 Rathdowne Street, Carlton, 3053",Hotel,https://www.thebeaufort.com.au/,-37.79645167488737,144.97050823745553,music_venues
The Woolshed,"Shed 9, Victoria Harbour, Docklands, 3008",Hotel,https://www.woolshed.melbourne/,-37.816571590803626,144.9439939584494,music_venues
Horse Bazaar,"Ground, 397 Little Lonsdale Street, Melbourne, 3000",Bar,http://www.horsebazaar.com.au/,-37.81181776178239,144.96018541434393,music_venues
Witches In Britches,"78-86 Dudley Street, West Melbourne, 3003",Amusement/Theme Venue,http://www.witchesinbritches.com.au/,-37.80900975220489,144.9526861520936,music_venues
CQ Melbourne,"Ground, 113 Queen Street, Melbourne, 3000",Nightclub,http://www.cqmelbourne.com.au/our-venues/cq-nightclub-home,-37.815890178211724,144.9609036675483,music_venues
Colour Nightclub,"229 Queensbury St, Carlton,",Nightclub,https://www.facebook.com/colournight.club/,-37.80447486558001,144.9611358873818,music_venues
Trapt Bar and Escape Rooms,"Unit 1, 377 Lonsdale Street, Melbourne, 3000",,,-37.81267565867737,144.96140750009823,music_venues
The Red Hummingbird,"Level 1, 246 Russell Street, Melbourne, 3000",Bar,https://www.redhummingbird.com.au/,-37.81048858505954,144.96722384705905,music_venues
Good Heavens,"Level 2, 79 Bourke Street, Melbourne, 3000",Bar,http://www.goodheavens.com.au/,-37.81207864874162,144.97105279643523,music_venues
Berlin Bar,"Level 1, 16-20 Corrs Lane, Melbourne, 3000",Bar,http://www.berlinbar.com.au/,-37.811157037789194,144.96837654729146,music_venues
AAMI Park,"AAMI Park, Olympic Park, 60 Olympic Boulevard, Melbourne, 3004",Performance space,https://www.aamipark.com.au/,-37.823968769882505,144.98255462534763,music_venues
Robot Bar,"12 Bligh Place, Melbourne, 3000",Bar,http://www.robotsushi.com/,-37.81710896940462,144.9637044827892,music_venues
Australian Centre for the Moving Image (ACMI),"Tenancy 6, Alfred Deakin Building, Federation Square, 2 Swanston Street, Melbourne, 3000",Multi-use,https://www.acmi.net.au/,-37.81834623092842,144.96908666163947,music_venues
The Lui Bar,"Level 55S, 525 Collins Street, Melbourne, 3000",,,-37.818353178519466,144.95714325498983,music_venues
Belgian Beer Cafe Melbourne,"5 Riverside Quay, Southbank, 3006",Bar,https://www.belgianbeercafemelbourne.com.au/,-37.82144024332026,144.96446071868732,music_venues
The Mill House Bar,"Unit 1, Basement, 277 Flinders Lane, Melbourne, 3000",Bar,http://themillhouse.com.au/,-37.81703740632109,144.96524327382468,music_venues
Harley House,"71 Collins Street, Melbourne, 3000",Bar,https://harleyhouse.com.au/,-37.81424168617854,144.97130100975428,music_venues
Union House Theatre University of Melbourne,"Union House Building 130, 230 Grattan Street, Parkville, 3010",Public University/College,https://umsu.unimelb.edu.au/,-37.799912958805734,144.96063239627077,music_venues
Max Watt's,"Gnd & Bmt, 125 Swanston Street, Melbourne, 3000",Venue,http://www.maxwatts.com.au/melbourne/,-37.81474151304183,144.96600928994255,music_venues
Coopers Inn,"Shop 1, 242 Exhibition Street, Melbourne, 3000",Hotel,http://www.coopersinn.com.au/,-37.809916568560254,144.96975861429243,music_venues
Arts Centre Melbourne,"100 St Kilda Road, Southbank, 3006",Performance space,https://www.artscentremelbourne.com.au/,-37.821552859925035,144.96888500926758,music_venues
Dan O'Connell Hotel,"223-227 Canning Street, Carlton, 3053",Hotel,http://www.thedan.com.au/,-37.7930358326425,144.9735256623954,music_venues
Insignia On Flinders,"502-504 Flinders Street, Melbourne, 3000",Bar,https://www.zomato.com/melbourne/insignia-flinders-street-cbd-melbourne,-37.82013879156501,144.95772242087293,music_venues
Immigration Museum,"400-424 Flinders Street, Melbourne, 3000",Museum,https://museumsvictoria.com.au/immigrationmuseum/,-37.81931971370013,144.96049295002675,music_venues
Hardimans Hotel,"521 Macaulay Road, Kensington, 3031",Hotel,http://www.hardimans.com.au/,-37.79436125976925,144.92860315925475,music_venues
Park Hyatt Melbourne,"20 Parliament Place, East Melbourne, 3002",Accommodation,https://melbourne.park.hyatt.com/en/hotel/home.html,-37.811280207254434,144.97559084778078,music_venues
New Market Studios,"87-91 Arden Street, North Melbourne, 3051",,,-37.80085694095499,144.94761918548477,music_venues
The Butterfly Club,"Level 1-3, 256 Collins Street, Melbourne, 3000",,,-37.81569096024321,144.96536899928205,music_venues
Colonial Hotel/Brown Alley Night Club,"240 King Street, Melbourne, 3000",Hotel,https://www.thecolonialhotel.com.au/,-37.81460565414994,144.95509368927424,music_venues
RMIT University,"100-186 La Trobe Street, Melbourne, 3000",Gallery,https://www.rmit.edu.au/events/contact/venue-enquiries,-37.809097098049996,144.96503629766326,music_venues
Bird's Basement,"11 Singers Lane, Melbourne, 3000",Venue,https://birdsbasement.com/,-37.8112098332617,144.95679721844013,music_venues
The Royal Melbourne Hotel,"621-633 Bourke Street, Melbourne, 3000",,,-37.816698511726194,144.95514280793918,music_venues
The Curtin,"John Curtin Hotel, 27-31 Lygon Street, Carlton, 3053",Venue,http://www.johncurtinhotel.com/,-37.806212169256085,144.9658160624824,music_venues
Club Retro,"383 Lonsdale Street, Melbourne, 3000",Nightclub,http://www.clubretro.com.au/,-37.812729378942684,144.96122123033936,music_venues
Riverland Bar,"Vault, 1-9 Princes Walk, Melbourne, 3000",Bar,http://www.riverlandbar.com/,-37.818689511539546,144.96869720953168,music_venues
Disco Bar,"Level 1-4, 167-175 Franklin Street, Melbourne, 3000",Bar,https://www.tripadvisor.com.au/LocationPhotoDirectLink-g255100-d286290-i126403786-Discovery_Melbourne-Melbourne_Victoria.html,-37.80871596791028,144.95902457942904,music_venues
Margaret Court Arena,"Margaret Court Arena, Melbourne Park, 200 Batman Avenue, Melbourne, 3004",Performance space,https://www.margaretcourtarena.com.au/,-37.8225900077663,144.9779329217489,music_venues
Ms Collins,"Gnd & Mezzanine, 425 Collins Street, Melbourne, 3000",Nightclub,http://www.mscollins.com.au/,-37.8173778889626,144.96055381695814,music_venues
Sidney Myer Music Bowl,"Alexandra Avenue, Melbourne, 3004",,,-37.82300093980653,144.97482025339892,music_venues
All Nations Backpackers Bar/Ubar,"8 Spencer Street, Melbourne, 3000",,,-37.820719517066344,144.95509884823858,music_venues
Spaghetti Tree Restaurant,"Ground, 59-63 Bourke Street, Melbourne, 3000",Bar,http://www.spaghettitree.com.au/,-37.8119532178998,144.97148245909204,music_venues
The Wharf Hotel,"Shop 17, Ground, 18-38 Siddeley Street, Docklands, 3008",Hotel,https://www.wharfhotel.com.au/,-37.82227454064513,144.9535974644043,music_venues
Off The Hip Records,"Basement, 387 Flinders Lane, Melbourne, 3000",Multi-use,https://whatson.melbourne.vic.gov.au/Shopping/BooksMusicandStationery/Music/Pages/1418.aspx,-37.818170221925946,144.9612683910999,music_venues
Speakeasy HQ,"Level 1, 520-522 Flinders Street, Melbourne, 3000",Theatre,http://speakeasy-hq.com/,-37.820357932687585,144.95696625309793,music_venues
170 Russell/Billboard Nightclub,"Basement,Part Ground & Part Level 8, 180 Russell Street, Melbourne, 3000",Nightclub,http://billboardsaturdays.com.au/,-37.812052247519325,144.96793672846434,music_venues
Melbourne Public,"15 Dukes Walk, South Wharf, 3006",,,-37.82438903938934,144.95063258929684,music_venues
The Irish Times Pub,"Gnd & Flr1, 427 Little Collins Street, Melbourne, 3000",Bar,http://theirishtimespub.com.au/,-37.81619295477831,144.960463460251,music_venues
El Coco,"Ground, 120 King Street, Melbourne, 3000",Nightclub,http://elcoco.com.au/,-37.81726434461992,144.95638356625756,music_venues
Vamos,"Level 1, 37-41 Little Bourke Street, Melbourne, 3000",Bar,http://www.vamos.net.au/,-37.810747836953425,144.97146559576274,music_venues
Kathleen Syme Library and Community Centre,"251 Faraday Street, Carlton, 3053",Multi-use,http://www.melbourne.vic.gov.au/community/hubs-bookable-spaces/kathleen-syme-library-and-community-centre/Pages/kathleen-syme-library.aspx,-37.79861750965004,144.9654893886899,music_venues
Assembly Hall,"156 Collins Street, Melbourne, 3000",Performance space,http://www.hallsforhire.com.au/halls/the-assembly-hall,-37.8148247935781,144.96831819904696,music_venues
Melbourne Showgrounds,"300 Epsom Road, Flemington, 3032",Amusement/Theme Venue,https://www.melbourneshowgrounds.com/,-37.78040735195738,144.91437999700486,music_venues
Ferdydurke,"Level 1-2, 239 Lonsdale Street, Melbourne, 3000",Bar,http://www.ferdydurke.com.au/,-37.811527225540964,144.96535317015017,music_venues
Festival Hall,"300 Dudley Street, West Melbourne, 3003",Performance space,http://www.festivalhall.com.au/,-37.811437769852866,144.9461726133059,music_venues
Charlie's Bar,"Basement, 67 Hardware Lane, Melbourne, 3000",,,-37.81325334536212,144.9610159338816,music_venues
Troika Bar,"Ground, 106 Little Lonsdale Street, Melbourne, 3000",Bar,http://troikabar.com/,-37.809251212232525,144.96862686025293,music_venues
Live Performance Australia,"Level 1, 15 Queen Street, Melbourne, 3000",Multi-use,http://www.liveperformance.com.au/,-37.818408350668456,144.96207799460493,music_venues
Queen Victoria Market,"65-159 Victoria Street, Melbourne, 3000",Performance space,http://qvm.com.au/,-37.806188527484565,144.9575348670326,music_venues
Platform One,"Vault 7-8, 375-377 Flinders Street, Melbourne, 3000",Nightclub,http://www.platformone.com.au/,-37.81914827560788,144.96232307486835,music_venues
Mesa Verde,"Unit S13, Level 6, 252 Swanston Street, Melbourne, 3000",Bar,http://www.mesaverde.net.au/,-37.81204087370973,144.96505253454222,music_venues
Bass Lounge,"Suite 12, Basement, 108 Bourke Street, Melbourne, 3000",,,-37.8121190907495,144.9699347659403,music_venues
The Black Rabbit,"Basement, 85 Queen Street, Melbourne, 3000",Nightclub,https://www.blackrabbit.melbourne/,-37.816506994449085,144.96120225838388,music_venues
Regent Theatre,"191-197 Collins Street, Melbourne, 3000",Theatre,https://marrinergroup.com.au/venues/regent-theatre,-37.81534585273267,144.9675380003948,music_venues
Therapy Nightclub  at Crown,"Shop 52, Level 2, 8 Whiteman Street, Southbank, 3006",Nightclub,http://www.level3atcrown.com.au/,-37.82381122217111,144.95741449297574,music_venues
The Last Chance Rock & Roll Bar,"238 Victoria Street, Melbourne, 3000",Venue,https://www.facebook.com/thelastchancerockandrollbar/,-37.80601960940114,144.95855233201263,music_venues
The Australian Club,"110 William Street, Melbourne, 3000",Venue,https://theaustralianclub.com.au/,-37.816671478507224,144.95884607575877,music_venues
Angel Music Bar,"12 Bourke Street, Melbourne, 3000",Bar,,-37.8113496150961,144.97256750232202,music_venues
The Athenaeum,"Level 1, 188 Collins Street, Melbourne, 3000",,,-37.81509905764948,144.96746914835032,music_venues
San Marco Social Club,"149 Canning Street, Carlton, 3053",Community hall,https://www.instagram.com/explore/locations/410139584/san-marco-in-lamis-social-club-melbourne/,-37.795035125757934,144.97317627114788,music_venues
The Comedy Theatre,"240 Exhibition Street, Melbourne, 3000",Theatre,https://marrinergroup.com.au/venues/comedy-theatre,-37.81021736084806,144.96989592744947,music_venues
Turf Bar,"Unit 1, LwrGround, 131 Queen Street, Melbourne, 3000",Bar,http://turfbar.com.au/,-37.815538920511045,144.96075342315893,music_venues
Campari House,"21-25 Hardware Lane, Melbourne, 3000",Bar,https://www.camparihouse.com.au/,-37.81406901492111,144.96139208309128,music_venues
University of Melbourne,"230 Grattan Street, Parkville, 3010",Performance space,https://umsu.unimelb.edu.au/,-37.799910206479105,144.9604734702218,music_venues
Chaise Lounge,"Basement, 105 Queen Street, Melbourne, 3000",Nightclub,http://www.chaiselounge.com.au/,-37.81607553369085,144.96100472386703,music_venues
Lustre Bar,"4A Centre Place, Melbourne, 3000",Bar,http://www.lustrebar.com.au/,-37.81675634145909,144.96562102792308,music_venues
Max Bar and Restaurant,"Ground, 54 Hardware Lane, Melbourne, 3000",Bar,http://maxonhardware.com.au/,-37.813473669206125,144.96119469998956,music_venues
Blue Diamond,"Level 15, 123 Queen Street, Melbourne, 3000",,,-37.8156945346344,144.960819979804,music_venues
Pan Pacific Melbourne,"Pan Pacific Melbourne, 2 Convention Centre Place, South Wharf, 3006",Accommodation,https://www.panpacific.com/en/hotels-resorts/australia/melbourne.html,-37.82511036230947,144.9509891753036,music_venues
Mercury Lounge,"8 Whiteman Street, Southbank, 3006",Nightclub,http://www.citybars.com.au/Melbourne_bars/Mercury_Lounge/Bar/25607,-37.82242997287491,144.96001590680228,music_venues
Velvet Bar,"Casino, 8 Whiteman Street, Southbank, 3006",Bar,https://www.crownmelbourne.com.au/bars-nightclubs/bars/velvet-bar,-37.82371881012607,144.95746455234837,music_venues
City Library,"Pt Gnd ,Pt Mezz & Lvl 1, 253-265 Flinders Lane, Melbourne, 3000",Library,http://www.melbourne.vic.gov.au/community/libraries/locations/Pages/locations.aspx,-37.816868507007,144.96581223646334,music_venues
Euro House,"Ground, 16-20 Corrs Lane, Melbourne, 3000",Nightclub,http://www.eurohouse.com.au/,-37.81115429522088,144.96821759637908,music_venues
Spleen Central,"41 Bourke Street, Melbourne, 3000",Bar,https://whatson.melbourne.vic.gov.au/DiningandNightlife/BarsandPubs/AllBars/Pages/1804.aspx,-37.81180924479099,144.9719804643413,music_venues
Flinders Station Hotel Backpackers,"Unit 8-17, Level 3-12, 35 Elizabeth Street, Melbourne, 3000",Hotel,https://oconnells.com.au/,-37.81739448122377,144.964498854058,music_venues
Town Hall Hotel,"33 Errol Street, North Melbourne, 3051",Hotel,http://www.townhallhotelnorthmelbourne.com.au/,-37.8042244812213,144.94924245595533,music_venues
Watermark Docklands,"Shop 9, 800 Bourke Street, Docklands, 3008",Bar,http://www.watermarkdocklands.com.au/,-37.81926761043375,144.94526954775787,music_venues
Federation Square,"2 Swanston Street, Melbourne, 3000",Performance space,http://fedsquare.com/venue-hire,-37.81839877968878,144.96896594005398,music_venues
Testing Grounds,"1-23 City Road, Southbank, 3006",Bar,http://www.testing-grounds.com.au/,-37.82122194809231,144.9675570806361,music_venues
East Melbourne Library,"122 George Street, East Melbourne, 3002",Library,http://www.melbourne.vic.gov.au/community/libraries/Pages/libraries.aspx,-37.81527551487422,144.9863774281896,music_venues
Highlander Bar,"11A Highlander Lane, Melbourne, 3000",Bar,http://highlanderbar.squarespace.com/,-37.81969180587922,144.9580106038663,music_venues
InterContinental Melbourne The Rialto,"487-503 Collins Street, Melbourne, 3000",Accommodation,https://www.melbourne.intercontinental.com/,-37.81812958399533,144.95792591365702,music_venues
Whitehart Bar,"Rear, 359 Lonsdale Street, Melbourne, 3000",,,-37.81255176993681,144.9618356969375,music_venues
Boney,"68 Little Collins Street, Melbourne, 3000",Venue,http://www.boney.net.au/,-37.81290578487124,144.97136869242834,music_venues
Magic Mountain Saloon,"62 Little Collins Street, Melbourne, 3000",Bar,http://www.magicmountainsaloon.com.au/,-37.812865395242035,144.97150999418588,music_venues
Munich Brauhaus,"45 South Wharf Promenade, South Wharf, 3006",Hotel,http://www.munichbrauhaus.com/,-37.82407576505346,144.95043329351685,music_venues
P.J. O'Brien's,"Shop 12-16, Ground, 3 Southgate Avenue, Southbank, 3006",Hotel,http://www.pjobriens.com.au/southbank/,-37.82033397996246,144.9664180424327,music_venues
Wonderland Under the Melbourne Star,"Shop 5, 101 Waterfront Way, Docklands, 3008",Amusement/Theme Venue,https://www.melbournestar.com/?gclid=CjwKCAiAmb7RBRATEiwA7kS8VBQVMosVIhqHOV3pMaapzYqC9b15mj8JCZDZ2QitiLOvI-qVdKuh5hoCTtgQAvD_BwE,-37.811708257763414,144.93818411601958,music_venues
Golden Monkey,"Basement & Rear, 389 Lonsdale Street, Melbourne, 3000",Bar,http://goldenmonkey.com.au/,-37.81278386278497,144.96103223580576,music_venues
White Rabbit Record Bar,"176 Bellair Street, Kensington, 3031",Bar,http://www.whiterabbitrecords.com.au/White_Rabbit_Record_Bar/home.html,-37.79363079251513,144.9300832037398,music_venues
The Croft Institute,"21-25 Croft Alley, Melbourne, 3000",Nightclub,http://www.thecroftinstitute.com.au/,-37.8120527407846,144.96912389323862,music_venues
The General Assembly,"29 South Wharf Promenade, South Wharf, 3006",Hotel,http://www.thegeneralassembly.com.au/,-37.82411828690496,144.95189029706034,music_venues
National Gallery of Victoria,"180 St Kilda Road, Southbank, 3006",Amusement/Theme Venue,https://www.ngv.vic.gov.au/,-37.82289869795763,144.9695692957962,music_venues
Exford Hotel,"199-203 Russell Street, Melbourne, 3000",Hotel,http://www.exfordhotel.com.au/,-37.81176295391396,144.96743873754548,music_venues
Sea Life Melbourne Aquarium,"Sea Life Melbourne Aquarium, King Street, Melbourne, 3000",Amusement/Theme Venue,https://www.melbourneaquarium.com.au/,-37.8209995658432,144.95804714265464,music_venues
The Plenary Hall,"2 Clarendon Street, South Wharf, 3006",Multi-use,http://mcec.com.au/plan-an-event/rooms/plenary/,-37.823627136260576,144.9560231776494,music_venues
Ormond Hall,"17 Church Street, Parkville, 3052",Performance space,https://www.onlymelbourne.com.au/ormond-hall,-37.78783638375116,144.9416332134173,music_venues
Library at The Dock,"107 Victoria Harbour Promenade, Docklands, 3008",Multi-use,http://www.melbourne.vic.gov.au/community/hubs-bookable-spaces/the-dock/library-at-the-dock/Pages/library-at-the-dock.aspx,-37.819873054704324,144.94075608935833,music_venues
The Barre,"100 St Kilda Road, Southbank, 3006",Bar,https://www.artscentremelbourne.com.au/your-visit/eat-drink-shop-rest/the-barre,-37.82150031142338,144.96900573614997,music_venues
Groove Live Bar and Terrace,"Casino, 8 Whiteman Street, Southbank, 3006",,,-37.8237160520609,144.9573055755779,music_venues
Cookie,"Unit S2, Level 1, 252 Swanston Street, Melbourne, 3000",Bar,http://www.cookie.net.au/,-37.812105299613584,144.9651302795867,music_venues
401 The Order,"Level 2 & Roof, 401 Swanston Street, Melbourne, 3000",Bar,http://www.theorder.com.au/,-37.809036429996624,144.96337709793107,music_venues
Fabrique Bar,"272 City Road, Southbank, 3006",Nightclub,http://www.fabriquebar.com/,-37.82629052318406,144.95944606241918,music_venues
The Charles Dickens Tavern,"Basement, 290 Collins Street, Melbourne, 3000",Hotel,https://whatson.melbourne.vic.gov.au/DiningandNightlife/BarsandPubs/AllPubs/Pages/4952.aspx,-37.81593815528815,144.96453019096924,music_venues
Meat Market Art Centre,"36-54 Courtney Street, North Melbourne, 3051",Theatre,http://www.melbourne.vic.gov.au/community/hubs-bookable-spaces/meat-market/Pages/meat-market.aspx,-37.80159050732829,144.95372820780835,music_venues
Clyde Hotel,"377-389 Cardigan Street, Carlton, 3053",Hotel,https://www.theclydehotel.com.au/location/,-37.797284200523016,144.965847915991,music_venues
The Carlton,"193-199 Bourke Street, Melbourne, 3000",Hotel,http://www.thecarlton.com.au/,-37.81309470257678,144.9676166993641,music_venues
Tramp Bar,"Basement, 20 King Street, Melbourne, 3000",Nightclub,https://trampbar.com/,-37.819775804387085,144.95746975329038,music_venues
Southbank Library at Boyd,"Ground, 207 City Road, Southbank, 3006",Library,http://www.melbourne.vic.gov.au/community/libraries/locations/Pages/locations.aspx,-37.8253171546193,144.96107200523335,music_venues
Melbourne Savage Club,"The Melbourne Savage Club, 12-16 Bank Place, Melbourne, 3000",Nightclub,http://melbournesavageclub.com/,-37.81658693170178,144.96043647413035,music_venues
Khokolat Bar,"Basement, 43-49 Hardware Lane, Melbourne, 3000",Nightclub,http://khokolatbar.com.au/,-37.81359471929996,144.96117047987784,music_venues
Father's Office,"249 Little Lonsdale Street, Melbourne, 3000",Bar,http://fathersoffice.com.au/,-37.81051763850372,144.9646508376141,music_venues
Shed 14/Peninsula,"161 Harbour Esplanade, Docklands, 3008",Performance space,https://www.residentadvisor.net/club.aspx?id=14337,-37.81596806067532,144.94497289363386,music_venues
Royal Standard Hotel,"333-337 William Street, West Melbourne, 3003",Hotel,http://www.royalstandardhotel.com.au/,-37.80777173629092,144.9544061811974,music_venues
Gin Palace,"10 Russell Place, Melbourne, 3000",Bar,http://www.ginpalace.com.au/,-37.81385598389118,144.96744878525442,music_venues
Rod Laver Arena,"Rod Laver Arena, Melbourne Park, 200 Batman Avenue, Melbourne, 3004",Performance space,https://www.rodlaverarena.com.au/,-37.82258727739611,144.97777394537906,music_venues
West Space Inc,"Level 1, 225 Bourke Street, Melbourne, 3000",Multi-use,https://westspace.org.au/,-37.81328852220956,144.96695028225128,music_venues
The Metropolitan Hotel,"The Metropolitan Hotel, 263-265 William Street, Melbourne, 3000",Hotel,http://metropolitan.melbourne/,-37.812911404982586,144.95676240471337,music_venues
The Hotel Windsor,"103-137 Spring Street, Melbourne, 3000",Hotel,http://www.thehotelwindsor.com.au/,-37.81195937492122,144.97313628316482,music_venues
Fad Gallery,"Gnd & Flr1, 14 Corrs Lane, Melbourne, 3000",Bar,http://fadgallery.com.au/,-37.811235398938436,144.9683349834688,music_venues
Penny Blue,"2 Driver Lane, Melbourne, 3000",Bar,https://pennyblue.com.au/,-37.81282106809502,144.96298868379125,music_venues
Vodka Temple,"Ground, 160-162 Lygon Street, Carlton, 3053",Nightclub,https://www.vodkatemple.com.au/,-37.80345202353251,144.9666383380664,music_venues
Union Electric,"13 Heffernan Lane, Melbourne, 3000",Bar,http://unionelectric.com.au/,-37.811773258347344,144.9666888906996,music_venues
Three Crowns Hotel,"361-365 Victoria Street, West Melbourne, 3003",Hotel,https://www.threecrownshotel.com.au/,-37.8052879130126,144.9494898220434,music_venues
Seamstress Restaurant and Bar,"113 Lonsdale Street, Melbourne, 3000",Bar,http://www.seamstress.com.au/prod/,-37.81046224853603,144.96895746044424,music_venues
European Bier Café,"120 Exhibition Street, Melbourne, 3000",bar,http://europeanbiercafe.com.au/,-37.81285332078208,144.97110417388942,music_venues
Arbory Bar and Eatery,"2 Flinders Walk, Melbourne, 3000",Bar,http://arbory.com.au/,-37.81890972470938,144.96679263372738,music_venues
Touche Hombre,"237 Lonsdale Street, Melbourne, 3000",Bar,https://www.touchehombre.com.au/,-37.81150165387338,144.9654399624449,music_venues
AIM (Australian Institute of Music),"Gnd & Levels 1 -3, 120 King Street, Melbourne, 3000",Recording,http://www.aim.edu.au/,-37.81726158549317,144.95622460343756,music_venues
St Michael's Uniting Church,"St Michaels Uniting Church, 122-136 Collins Street, Melbourne, 3000",Church,http://stmichaels.org.au/,-37.81452691849391,144.96935205119595,music_venues
The Kelvin Club,"Kelvin Club, 14-30 Melbourne Place, Melbourne, 3000",,,-37.8132350970678,144.96883724816743,music_venues
The Leveson,"46 Leveson Street, North Melbourne, 3051",Hotel,http://theleveson.melbourne/,-37.80370793018695,144.951185078014,music_venues
Cherry Bar,"Basement, 103 Flinders Lane, Melbourne, 3000",Venue,http://cherrybar.com.au/,-37.815376525088666,144.97089701596647,music_venues
Victorian Arts Centre Trust,"Carpark, 100 St Kilda Road, Southbank, 3006",Multi-use,https://www.artscentremelbourne.com.au/about-us/media-centre/2017/may/victorian-arts-centre-trust,-37.82144364943292,144.9688880032937,music_venues
Eden Bar,"Level 1, 163-165 Russell Street, Melbourne, 3000",Nightclub,http://edenbar.com.au/,-37.81248788571263,144.9677712185572,music_venues
Section 8 Bar,"27-29 Tattersalls Lane, Melbourne, 3000",Bar,https://section8.com.au/,-37.8117627149045,144.9654889438025,music_venues
Athenaeum Theatre,"184-192 Collins Street, Melbourne, 3000",Theatre,http://www.athenaeumtheatre.com.au/,-37.81509631361538,144.96731018907587,music_venues
The Bodega,"Shop 2, 47-55 Little Bourke Street, Melbourne, 3000",Bar,https://www.facebook.com/thebodegabar/,-37.8108890793276,144.97103359901016,music_venues
Abbey Road Institute,"Suite 1, Ground, 135 Sturt Street, Southbank, 3006",Recording,https://abbeyroadinstitute.com.au/,-37.827341922099656,144.96636533745024,music_venues
Bond Lounge Bar,"Ground, 20-24 Bond Street, Melbourne, 3000",Nightclub,http://www.bondmelbourne.com.au/,-37.818180434552545,144.96282893879925,music_venues
Marrakech Bar,"LwrGround, 25 Bank Place, Melbourne, 3000",Nightclub,http://www.marrakechcocktailbar.com.au/,-37.81630543173182,144.9602164244812,music_venues
Inflation Nightclub/Top Yard Rooftop Bar,"54-60 King Street, Melbourne, 3000",Nightclub,http://www.inflation.com.au/aboutus.htm,-37.81895269154036,144.95708651070385,music_venues
The Langham,"234-236 Domain Road, South Yarra, 3141",Hotel,http://www.langhamhotels.com/en/the-langham/melbourne/,-37.83444869858646,144.98562037149898,music_venues
The Shaw Davey Slum,"171 Elgin Street, Carlton, 3053",Bar,http://theshawdaveyslum.com.au/,-37.797432725686676,144.96879689682868,music_venues
Victoria Star Cruises,"Berth 10, Victoria Harbour, Docklands, 3008",Venue,http://www.victoriastar.com.au/,-37.817380564148905,144.9423023877635,music_venues
The Botanical,"169 Domain Road, South Yarra, 3141",Hotel,http://www.thebotanical.com.au/,-37.83414391594419,144.98179263809277,music_venues
Level 3 at Crown,"8 Whiteman Street, Southbank, 3006",Nightclub,http://www.level3atcrown.com.au/,-37.82248526641422,144.96005414679885,music_venues
Fiftyfive,"Basement, 55 Elizabeth Street, Melbourne, 3000",Bar,http://www.fifty-five.com.au/,-37.81697659904653,144.96422322338523,music_venues
Asian Beer Café,"Shop 311, Level 3, 300 Lonsdale Street, Melbourne, 3000",Bar,http://asianbeercafe.com.au/,-37.81016156449148,144.96340822349765,music_venues
Sticky Institute,"Shop 10, Campbell Arcade, Melbourne, 3000",Bar,http://www.stickyinstitute.com/,-37.81780039372033,144.96608291162394,music_venues
Basement Discs,"Basement, 24 Block Place, Melbourne, 3000",Performance space,http://www.basementdiscs.com.au/,-37.815398812509436,144.96439685314675,music_venues
Loop Project Space & Bar,"Ground, 19-23 Meyers Place, Melbourne, 3000",Bar,http://www.looponline.com.au/,-37.81212244439291,144.97221043633814,music_venues
Hopscotch Urban Beer Bar,"Shop 4, 4 Riverside Quay, Southbank, 3006",Bar,https://www.hopscotchmelbourne.com.au/,-37.82109278417599,144.96374450927075,music_venues
Her Majesty's Theatre,"199-219 Exhibition Street, Melbourne, 3000",Theatre,http://www.hmt.com.au/,-37.81089990679512,144.96984175787586,music_venues
Sheraton Hotel Melbourne,"27 Little Collins Street, Melbourne, 3000",Accommodation,http://www.sheratonmelbourne.com/,-37.812646032283375,144.9726492304484,music_venues
Café Segovia,"33 Block Place, Melbourne, 3000",,https://www.tripadvisor.com.au/Restaurant_Review-g255100-d722884-Reviews-Cafe_Segovia-Melbourne_Victoria.html,-37.81530880548056,144.96431671833355,music_venues
Curtin House,"Unit S15, Level 7, 252 Swanston Street, Melbourne, 3000",Bar,http://curtinhouse.com/,-37.81197919475205,144.96513374198747,music_venues
La Di Da,"188-200 King Street, Melbourne, 3000",Nightclub,https://www.ladidapeople.com/,-37.815558987309416,144.95553316188418,music_venues
The Sub Club,"Unit 20, Basement, 35 Elizabeth Street, Melbourne, 3000",,,-37.817391733040644,144.96433989015495,music_venues
Church of All Nations,"178-204 Palmerston Street, Carlton, 3053",Church,http://carlton-uca.org/news/,-37.795962230869854,144.9687595076568,music_venues
The Emerald Peacock,"233 Lonsdale Street, Melbourne, 3000",Bar,http://theemeraldpeacock.com/,-37.81146925497217,144.9655499214504,music_venues
Baroq House,"Gnd & Bmt, 2 Drewery Place, Melbourne, 3000",,,-37.81119498448426,144.9640484516178,music_venues
XE54 Nightclub,"Basement, 334-342 City Road, Southbank, 3006",,,-37.82794971778835,144.95742336165304,music_venues
Club Voltaire,"Gnd & Level 1, 14 Raglan Street, North Melbourne, 3051",Venue,https://www.facebook.com/clubvoltairemelbourne/,-37.80432381180095,144.95011526791205,music_venues
Trades Hall,"2 Lygon Street, Carlton, 3053",Bar,https://www.bellaunion.com.au/,-37.80683784363076,144.96605581842582,music_venues
Mr Tod,"Basement, 2-6 Parliament Place, East Melbourne, 3002",Multi-use,http://www.mrtod.com.au/,-37.81168447518055,144.97552005641302,music_venues
Waterside Hotel,"508-514 Flinders Street, Melbourne, 3000",,,-37.820280653979886,144.95723615975294,music_venues
Victoria University,"225 King Street, Melbourne, 3000",Multi-use,https://www.vu.edu.au/,-37.81498068947084,144.95490184835984,music_venues
Co.,"Shop 53, Level 2, 8 Whiteman Street, Southbank, 3006",Nightclub,http://www.level3atcrown.com.au/,-37.823635015853306,144.95781296125432,music_venues
Young & Jackson,"Young And Jacksons Hotel, 1 Swanston Street, Melbourne, 3000",Hotel,https://www.youngandjacksons.com.au/,-37.81736432768269,144.96721031538397,music_venues
RMIT Student Union (RMIT Village),"5-17 Flemington Road, North Melbourne, 3051",Public University/College,https://www.mystudentvillage.com/au/rmit-village/,-37.80095036830012,144.95617406859978,music_venues
Spice Market,"LwrGround, 121-131 Collins Street, Melbourne, 3000",Nightclub,http://www.spicemarket.net.au/,-37.81548538501546,144.96956538490497,music_venues
Sokol Melbourne,"497 Queensberry Street, North Melbourne, 3051",Hotel,http://www.sokolmelbourne.com.au/,-37.80332009816263,144.95076027104383,music_venues
fortyfive downstairs,"Basement & LwrGround, 45 Flinders Lane, Melbourne, 3000",Bar,http://www.fortyfivedownstairs.com/wp2016/,-37.81476781579968,144.97298148815318,music_venues
The Comic's Lounge,"Level 1, 26 Errol Street, North Melbourne, 3051",Venue,https://www.thecomicslounge.com.au/,-37.80449837044193,144.94954077158977,music_venues
Garden State Hotel,"95-101 Flinders Lane, Melbourne, 3000",Hotel,http://gardenstatehotel.com.au/,-37.81533364912343,144.97103885657114,music_venues
Alexandra Gardens,"Alexandra Avenue, Melbourne, 3004",Performance space,http://www.visitmelbourne.com/regions/High-Country/Travel-information/Visitor-information-centres/Alexandra-Visitor-Information-Centre.aspx,-37.82080257920049,144.97185569304133,music_venues
Manchuria,"Level 1, 7-9 Waratah Place, Melbourne, 3000",Bar,http://www.manchuriabar.com/,-37.811626300807845,144.96709845288777,music_venues
Transit Rooftop Bar,"Tenancy 29, Level 2, 2 Swanston Street, Melbourne, 3000",Hotel,https://transitrooftopbar.com.au/,-37.81828956913258,144.96896893362114,music_venues
Building 8,"Building 8, RMIT University, 360 Swanston Street, Melbourne, 3000",Multi-use,https://www.rmit.edu.au/,-37.80877875813838,144.96362521955905,music_venues
The Toff in Town,"Unit S3-S4, Level 2, 252 Swanston Street, Melbourne, 3000",Venue,https://www.thetoffintown.com/,-37.81204362060309,144.96521148704275,music_venues
Left Bank Melbourne,"Ground, 1 Southbank Boulevard, Southbank, 3006",Bar,http://www.leftbankmelbourne.com.au/,-37.820988535980156,144.9625166793894,music_venues
The Princess Theatre,"163-181 Spring Street, Melbourne, 3000",Theatre,https://marrinergroup.com.au/venues/princess-theatre,-37.810683700820334,144.97255452673397,music_venues
Melbourne Recital Centre,"Melbourne Recital Centre, 31 Sturt Street, Southbank, 3006",Performance space,https://www.melbournerecital.com.au/,-37.82430328303502,144.9672846102551,music_venues
Melbourne Zoo,"Elliott Avenue, Parkville, 3052",Performance space,https://www.zoo.org.au/melbourne,-37.78535415162557,144.9531734126854,music_venues
The Crafty Squire,"115-127 Russell Street, Melbourne, 3000",Hotel,http://www.thecraftysquire.com.au/,-37.81364054478455,144.96829657234807,music_venues
Arrow On Swanston,"488 Swanston Street, Carlton, 3053",Venue,http://www.arrowonswanston.com.au/,-37.805459370954416,144.96327549662402,music_venues
Soho Restaurant and Bar,"Ground, 4 Riverside Quay, Southbank, 3006",,,-37.821090034747975,144.96358553751085,music_venues
